{
"type": "FeatureCollection",
"name": "clip_tectonica",
"crs": { "type": "name", "properties": { "name": "urn:ogc:def:crs:OGC:1.3:CRS84" } },
"features": [
{ "type": "Feature", "properties": { "OBJECTID": 1, "Id": 0, "Nombre": null, "Edad_R": null, "Fuente": null, "Tipo": "Falla de Rumbo Dextral (Right-lateral)", "Rumbo": null, "Longitud": 0, "Desplazami": 0, "Shape_Leng": 9914.8272467299994 }, "geometry": { "type": "MultiLineString", "coordinates": [ [ [ -85.376261393485422, 13.30316416399312 ], [ -85.335781046509496, 13.383540778515272 ] ] ] } },
{ "type": "Feature", "properties": { "OBJECTID": 2, "Id": 0, "Nombre": null, "Edad_R": null, "Fuente": null, "Tipo": "Falla de Rumbo Dextral (Right-lateral)", "Rumbo": null, "Longitud": 0, "Desplazami": 0, "Shape_Leng": 2509.03354863 }, "geometry": { "type": "MultiLineString", "coordinates": [ [ [ -85.326975442704082, 13.326236828438079 ], [ -85.304272573985159, 13.330713515500159 ] ] ] } },
{ "type": "Feature", "properties": { "OBJECTID": 3, "Id": 0, "Nombre": null, "Edad_R": null, "Fuente": null, "Tipo": "Falla de Rumbo Dextral (Right-lateral)", "Rumbo": null, "Longitud": 0, "Desplazami": 0, "Shape_Leng": 854.49974468899995 }, "geometry": { "type": "MultiLineString", "coordinates": [ [ [ -85.368280673916814, 13.383841506340145 ], [ -85.367852268554699, 13.376129117887171 ] ] ] } },
{ "type": "Feature", "properties": { "OBJECTID": 4, "Id": 0, "Nombre": null, "Edad_R": null, "Fuente": null, "Tipo": "Falla de Rumbo Dextral (Right-lateral)", "Rumbo": null, "Longitud": 0, "Desplazami": 0, "Shape_Leng": 5771.9285196800001 }, "geometry": { "type": "MultiLineString", "coordinates": [ [ [ -85.388925233346541, 13.382746961230881 ], [ -85.357084570020334, 13.340914039007862 ] ] ] } },
{ "type": "Feature", "properties": { "OBJECTID": 5, "Id": 0, "Nombre": null, "Edad_R": null, "Fuente": null, "Tipo": "Falla de Rumbo Dextral (Right-lateral)", "Rumbo": null, "Longitud": 0, "Desplazami": 0, "Shape_Leng": 6854.4432045200001 }, "geometry": { "type": "MultiLineString", "coordinates": [ [ [ -85.416810100737791, 13.323366680527759 ], [ -85.40466584958186, 13.384173231991829 ] ] ] } },
{ "type": "Feature", "properties": { "OBJECTID": 6, "Id": 0, "Nombre": null, "Edad_R": null, "Fuente": null, "Tipo": "Falla Normal (Normal fault)", "Rumbo": null, "Longitud": 0, "Desplazami": 0, "Shape_Leng": 1614.9884872600001 }, "geometry": { "type": "MultiLineString", "coordinates": [ [ [ -85.41621045155587, 13.371137427798812 ], [ -85.409913040233874, 13.357905403699133 ] ] ] } },
{ "type": "Feature", "properties": { "OBJECTID": 7, "Id": 0, "Nombre": null, "Edad_R": null, "Fuente": null, "Tipo": "Falla Normal (Normal fault)", "Rumbo": null, "Longitud": 0, "Desplazami": 0, "Shape_Leng": 5922.2456281100003 }, "geometry": { "type": "MultiLineString", "coordinates": [ [ [ -85.407417914607493, 13.355675985922003 ], [ -85.406801750186787, 13.353729886076906 ], [ -85.405212324004808, 13.345498120492628 ], [ -85.405159683782671, 13.33868214334073 ], [ -85.405843544078309, 13.331521667314247 ], [ -85.407208398682641, 13.324518383729741 ], [ -85.410873109862749, 13.310655575278853 ], [ -85.413145837323242, 13.303326491464899 ] ] ] } },
{ "type": "Feature", "properties": { "OBJECTID": 8, "Id": 0, "Nombre": null, "Edad_R": null, "Fuente": null, "Tipo": "Falla de Rumbo Dextral (Right-lateral)", "Rumbo": null, "Longitud": 0, "Desplazami": 0, "Shape_Leng": 3742.1605116199999 }, "geometry": { "type": "MultiLineString", "coordinates": [ [ [ -85.308306976896304, 13.383283296337162 ], [ -85.309633649298348, 13.349483953511754 ] ] ] } },
{ "type": "Feature", "properties": { "OBJECTID": 9, "Id": 0, "Nombre": null, "Edad_R": null, "Fuente": null, "Tipo": "Falla de Rumbo Dextral (Right-lateral)", "Rumbo": null, "Longitud": 0, "Desplazami": 0, "Shape_Leng": 4156.0578835200004 }, "geometry": { "type": "MultiLineString", "coordinates": [ [ [ -85.339418398722117, 13.30299667482476 ], [ -85.335983965122026, 13.340411852621697 ] ] ] } },
{ "type": "Feature", "properties": { "OBJECTID": 10, "Id": 0, "Nombre": null, "Edad_R": null, "Fuente": null, "Tipo": "Falla de Rumbo Dextral (Right-lateral)", "Rumbo": null, "Longitud": 0, "Desplazami": 0, "Shape_Leng": 2453.4851763299998 }, "geometry": { "type": "MultiLineString", "coordinates": [ [ [ -85.362044302784028, 13.303100165816069 ], [ -85.365239693736001, 13.325055275566276 ] ] ] } },
{ "type": "Feature", "properties": { "OBJECTID": 11, "Id": 0, "Nombre": null, "Edad_R": null, "Fuente": null, "Tipo": "Falla de Rumbo Dextral (Right-lateral)", "Rumbo": null, "Longitud": 0, "Desplazami": 0, "Shape_Leng": 2626.3630869100002 }, "geometry": { "type": "MultiLineString", "coordinates": [ [ [ -85.368558418912059, 13.331356038800758 ], [ -85.373628833824043, 13.354570710232361 ] ] ] } },
{ "type": "Feature", "properties": { "OBJECTID": 12, "Id": 0, "Nombre": null, "Edad_R": null, "Fuente": null, "Tipo": "Falla de Rumbo Dextral (Right-lateral)", "Rumbo": null, "Longitud": 0, "Desplazami": 0, "Shape_Leng": 2779.9567056400001 }, "geometry": { "type": "MultiLineString", "coordinates": [ [ [ -85.368604460070884, 13.337390138668228 ], [ -85.351599310783755, 13.356208753770629 ] ] ] } },
{ "type": "Feature", "properties": { "OBJECTID": 13, "Id": 0, "Nombre": null, "Edad_R": null, "Fuente": null, "Tipo": "Falla de Rumbo Dextral (Right-lateral)", "Rumbo": null, "Longitud": 0, "Desplazami": 0, "Shape_Leng": 3193.2560395199998 }, "geometry": { "type": "MultiLineString", "coordinates": [ [ [ -85.395076862531297, 13.314484675162308 ], [ -85.373576402517557, 13.334228318704634 ] ] ] } },
{ "type": "Feature", "properties": { "OBJECTID": 14, "Id": 0, "Nombre": null, "Edad_R": null, "Fuente": null, "Tipo": "Falla de Rumbo Sinestral (Left-lateral)", "Rumbo": null, "Longitud": 0, "Desplazami": 0, "Shape_Leng": 65.318140669200005 }, "geometry": { "type": "MultiLineString", "coordinates": [ [ [ -85.336446918303025, 13.383546982378711 ], [ -85.33593570084696, 13.383233831050608 ] ] ] } },
{ "type": "Feature", "properties": { "OBJECTID": 15, "Id": 0, "Nombre": null, "Edad_R": null, "Fuente": null, "Tipo": "Falla de Rumbo Sinestral (Left-lateral)", "Rumbo": null, "Longitud": 0, "Desplazami": 0, "Shape_Leng": 6133.52969863 }, "geometry": { "type": "MultiLineString", "coordinates": [ [ [ -85.377166877876576, 13.330931600236076 ], [ -85.393315183637796, 13.384070308741036 ] ] ] } },
{ "type": "Feature", "properties": { "OBJECTID": 16, "Id": 0, "Nombre": null, "Edad_R": null, "Fuente": null, "Tipo": "Falla de Rumbo Sinestral (Left-lateral)", "Rumbo": null, "Longitud": 0, "Desplazami": 0, "Shape_Leng": 5096.5885556200001 }, "geometry": { "type": "MultiLineString", "coordinates": [ [ [ -85.355760260498727, 13.304348899003056 ], [ -85.341541750736567, 13.348261853529804 ] ] ] } }
]
}
