{
"type": "FeatureCollection",
"name": "cuenca_2_p2",
"crs": { "type": "name", "properties": { "name": "urn:ogc:def:crs:OGC:1.3:CRS84" } },
"features": [
{ "type": "Feature", "properties": { "fid": 1, "BASIN_ID": 2, "Area_km2": 224.285 }, "geometry": { "type": "Polygon", "coordinates": [ [ [ -85.373177503354583, 13.503942645605363 ], [ -85.373179396731757, 13.503663276198427 ], [ -85.373456006739062, 13.503665071143443 ], [ -85.373457899751813, 13.503385701691547 ], [ -85.3731812900661, 13.503383906785023 ], [ -85.373186969811997, 13.502545798505954 ], [ -85.374016796095702, 13.50255118196444 ], [ -85.374018688294001, 13.502271812409678 ], [ -85.376784775302966, 13.50228973706948 ], [ -85.376786664242971, 13.502010367123814 ], [ -85.378169707645171, 13.502019317828838 ], [ -85.378177256547133, 13.500901837213551 ], [ -85.378453864061782, 13.500903626286442 ], [ -85.378455750858961, 13.500624256078067 ], [ -85.378732358092194, 13.500626044807744 ], [ -85.378734244525177, 13.500346674554534 ], [ -85.379010851476991, 13.500348462941005 ], [ -85.379012737545764, 13.50006909264296 ], [ -85.379565950926619, 13.500072668424709 ], [ -85.37956406550083, 13.500352038799459 ], [ -85.379840672572854, 13.500353826271432 ], [ -85.379842557677136, 13.500074455858339 ], [ -85.381225592030461, 13.500083388454081 ], [ -85.381223708533668, 13.500362759058785 ], [ -85.381776923198203, 13.500366330039881 ], [ -85.381775040301775, 13.500645700714703 ], [ -85.382328255769352, 13.500649270553028 ], [ -85.382326373473347, 13.500928641297959 ], [ -85.382879589743936, 13.500932209993458 ], [ -85.382877708048369, 13.501211580808468 ], [ -85.383707533718663, 13.501216931680116 ], [ -85.383709414449669, 13.500937560750335 ], [ -85.384262631119995, 13.500941126397338 ], [ -85.384260751032031, 13.501220497403597 ], [ -85.384537359748634, 13.501222279808053 ], [ -85.384533600088105, 13.501781021877621 ], [ -85.385086818927263, 13.501784585924844 ], [ -85.385084939676261, 13.502063957026362 ], [ -85.385361549477295, 13.502065738630877 ], [ -85.385359670505309, 13.502345109764137 ], [ -85.385636280667811, 13.502346891101984 ], [ -85.385632523239394, 13.50290563342551 ], [ -85.38590913408494, 13.502907414534862 ], [ -85.385905377129603, 13.503466156908909 ], [ -85.387841658667583, 13.503478616671671 ], [ -85.387843534915419, 13.503199245220676 ], [ -85.388120146401604, 13.503201023928993 ], [ -85.388123898126764, 13.50264228093131 ], [ -85.388400509009671, 13.50264405925844 ], [ -85.388404259921899, 13.502085316158595 ], [ -85.388127649682104, 13.502083537907746 ], [ -85.388140778788468, 13.50012793712151 ], [ -85.387864170839222, 13.500126158832797 ], [ -85.387867922273387, 13.499567415769093 ], [ -85.388144529579648, 13.499569193981515 ], [ -85.388153905814676, 13.498172336018342 ], [ -85.388430511553466, 13.498174113735249 ], [ -85.388438010491626, 13.49705662709575 ], [ -85.388714614984508, 13.497058404355345 ], [ -85.388718363556109, 13.496499660920531 ], [ -85.388994967445996, 13.496501437799118 ], [ -85.389011831025329, 13.493987091679275 ], [ -85.389288432062685, 13.493988867910049 ], [ -85.389294051528125, 13.493150752306041 ], [ -85.389847251794308, 13.493154303624875 ], [ -85.389849124221996, 13.492874931667723 ], [ -85.390402324004739, 13.492878481691685 ], [ -85.390404195747408, 13.492599109651888 ], [ -85.390957395046712, 13.492602658381022 ], [ -85.390959266104389, 13.492323286258598 ], [ -85.391235865492405, 13.492325060128104 ], [ -85.391237736186397, 13.492045687961143 ], [ -85.391790934439157, 13.492049234710077 ], [ -85.391794674414911, 13.491490490204527 ], [ -85.392071272958361, 13.49149226304592 ], [ -85.392073142561443, 13.491212890745397 ], [ -85.392626339125016, 13.491216435438202 ], [ -85.392628208043234, 13.490937063055137 ], [ -85.392904806063356, 13.490938834906563 ], [ -85.392906674617976, 13.490659462479003 ], [ -85.39373646795292, 13.490664776091503 ], [ -85.393738335501453, 13.490385403543424 ], [ -85.394014933037923, 13.490387174100354 ], [ -85.394018667365614, 13.489828428908801 ], [ -85.394295264299316, 13.489830199085127 ], [ -85.394297131078488, 13.489550826441658 ], [ -85.394573727730659, 13.489552596275397 ], [ -85.394592389984922, 13.486758869105456 ], [ -85.395698764142622, 13.486765943875504 ], [ -85.395704358140804, 13.485927825142848 ], [ -85.39598095081594, 13.485929592960176 ], [ -85.39598281507638, 13.485650219998414 ], [ -85.396259407470041, 13.485651987473281 ], [ -85.396263135221972, 13.485093241454477 ], [ -85.396539727013035, 13.485095008548958 ], [ -85.396541590504555, 13.484815635491922 ], [ -85.39681818201413, 13.484817402243975 ], [ -85.39682004514232, 13.484538029142545 ], [ -85.397096636370435, 13.484539795552186 ], [ -85.397098499135311, 13.484260422406365 ], [ -85.397375090081937, 13.484262188473606 ], [ -85.397376952483526, 13.483982815283404 ], [ -85.397930133853436, 13.483986346428653 ], [ -85.397931995570659, 13.483706973156163 ], [ -85.398208585993942, 13.483708738234194 ], [ -85.398210447347893, 13.48342936491734 ], [ -85.398763627671073, 13.483432894084238 ], [ -85.398767348968192, 13.482874147279579 ], [ -85.398490759428938, 13.482872382924137 ], [ -85.398496342021559, 13.482034262782395 ], [ -85.398219753485037, 13.482032498236213 ], [ -85.398223475644656, 13.481473751518559 ], [ -85.398500063539132, 13.481475515988947 ], [ -85.398505645499213, 13.480637395750355 ], [ -85.398229058567779, 13.48063563139366 ], [ -85.398240223275337, 13.478959390969543 ], [ -85.397963638309335, 13.478957626535891 ], [ -85.397965499267272, 13.478678253147178 ], [ -85.397688914661842, 13.478676488447089 ], [ -85.397696359355535, 13.477558994979333 ], [ -85.398249526038541, 13.477562523771923 ], [ -85.398251386464665, 13.477283150313033 ], [ -85.398527969544645, 13.477284914214962 ], [ -85.398529829607696, 13.477005540711723 ], [ -85.399359578122358, 13.477010830478035 ], [ -85.399361437180531, 13.47673145685469 ], [ -85.40102093335237, 13.476742027944109 ], [ -85.401022790443051, 13.476462654087186 ], [ -85.401299372955819, 13.476464414832563 ], [ -85.401301229683497, 13.476185040931355 ], [ -85.401577811914876, 13.476186801334622 ], [ -85.401579668279595, 13.475907427389139 ], [ -85.401856250229613, 13.475909187450306 ], [ -85.401858106231359, 13.47562981346055 ], [ -85.402411269608123, 13.475633332594443 ], [ -85.402413124926056, 13.475353958522621 ], [ -85.402966287819027, 13.475357476363849 ], [ -85.40296814245319, 13.475078102209986 ], [ -85.403244723638011, 13.47507986063642 ], [ -85.403246577909272, 13.474800486438319 ], [ -85.403523158812703, 13.474802244522721 ], [ -85.40352501272109, 13.474522870280392 ], [ -85.403801593343132, 13.474524628022772 ], [ -85.403805300392108, 13.473965879443211 ], [ -85.404081880411937, 13.473967636805817 ], [ -85.404085586651178, 13.47340888812492 ], [ -85.404362166068793, 13.473410645107778 ], [ -85.404365871498356, 13.47285189632556 ], [ -85.404642450313801, 13.472853652928698 ], [ -85.404646154933758, 13.472294904045174 ], [ -85.404922733147032, 13.472296660268622 ], [ -85.404924585073218, 13.472017285779437 ], [ -85.405201163005145, 13.472019041660952 ], [ -85.405203014568556, 13.471739667127583 ], [ -85.405756169909097, 13.471743177902601 ], [ -85.40575802078898, 13.471463803287325 ], [ -85.406587753132939, 13.471469067055365 ], [ -85.406589603008598, 13.471189692320502 ], [ -85.407972489432183, 13.471198458995334 ], [ -85.407970641160347, 13.471477833918623 ], [ -85.408247218883886, 13.47147958637875 ], [ -85.40824537089091, 13.471758961333258 ], [ -85.408521948974553, 13.471760713526871 ], [ -85.408520101260464, 13.472040088512582 ], [ -85.408796679704224, 13.472041840439669 ], [ -85.40879483226901, 13.47232121545659 ], [ -85.409071411072873, 13.472322967117133 ], [ -85.40906956391656, 13.472602342165247 ], [ -85.409346143080541, 13.472604093559234 ], [ -85.409347989916057, 13.472324718473477 ], [ -85.409624568798549, 13.47232646952563 ], [ -85.409622722283828, 13.472605844649021 ], [ -85.409899301526437, 13.472607595434603 ], [ -85.409901147720348, 13.472328220273587 ], [ -85.410454305681839, 13.472331720856914 ], [ -85.410452460129491, 13.472611096093166 ], [ -85.411005618889703, 13.47261459553491 ], [ -85.411007463800459, 13.472335220223453 ], [ -85.41128404291868, 13.472336969450428 ], [ -85.41128219832872, 13.47261634479948 ], [ -85.41238851647735, 13.472623338815726 ], [ -85.412386673128765, 13.472902714308644 ], [ -85.413769573301309, 13.4729114501721 ], [ -85.413767731514994, 13.473190825846316 ], [ -85.414597473051444, 13.473196063826418 ], [ -85.414595632185822, 13.47347543960675 ], [ -85.414872213097155, 13.473477185029193 ], [ -85.414870372510634, 13.473756560840581 ], [ -85.415146953781971, 13.473758305996299 ], [ -85.415143273125395, 13.474317057674751 ], [ -85.417632512104333, 13.47433275106021 ], [ -85.417630674601099, 13.474612127226999 ], [ -85.418183839890716, 13.474615611374146 ], [ -85.418178329056261, 13.475453740060434 ], [ -85.418454912722297, 13.475455481789901 ], [ -85.418453076015069, 13.475734858043195 ], [ -85.41872966004108, 13.47573659950581 ], [ -85.418731496427441, 13.475457223215095 ], [ -85.41900808017165, 13.475458964336017 ], [ -85.419009916195478, 13.475179588001446 ], [ -85.419839666699929, 13.475184809426363 ], [ -85.419841501719546, 13.474905432973147 ], [ -85.42011808497827, 13.474907172802199 ], [ -85.420119919635425, 13.474627796305152 ], [ -85.420673085628295, 13.474631274975714 ], [ -85.420682255081786, 13.473234392020014 ], [ -85.420958836532591, 13.473236130712081 ], [ -85.420960669977731, 13.472956754064237 ], [ -85.421237251146721, 13.472958492414724 ], [ -85.421240917270694, 13.472399739024981 ], [ -85.421794078442517, 13.472403214663904 ], [ -85.421797743117054, 13.47184446109898 ], [ -85.422350903161714, 13.471847935371748 ], [ -85.422367386366986, 13.469333543338536 ], [ -85.423473695377027, 13.46934048689039 ], [ -85.423475525353751, 13.469061109816328 ], [ -85.423752102382949, 13.469062844906661 ], [ -85.423753931997467, 13.468783467788858 ], [ -85.424030508744906, 13.468785202537768 ], [ -85.424045141601781, 13.46655018506506 ], [ -85.423768567419742, 13.466548450614486 ], [ -85.4237703966608, 13.466269073438696 ], [ -85.424046970522184, 13.466270807851977 ], [ -85.424063428939121, 13.463756412644386 ], [ -85.424339999953972, 13.463758146418048 ], [ -85.424350968441829, 13.46208188243277 ], [ -85.424074399350303, 13.462080148882816 ], [ -85.4240817121281, 13.46096263957963 ], [ -85.424358279937564, 13.460964372980449 ], [ -85.42436559076971, 13.459846863425096 ], [ -85.422982758521641, 13.45983819412756 ], [ -85.422986416893536, 13.459279439684211 ], [ -85.422709851201745, 13.459277704987603 ], [ -85.422711680645875, 13.458998327793585 ], [ -85.42243511531349, 13.458996592830403 ], [ -85.422444263513626, 13.457599706950338 ], [ -85.422167699822381, 13.457597971869903 ], [ -85.422173189205409, 13.45675984037659 ], [ -85.422449751935432, 13.456761575345036 ], [ -85.422451581326328, 13.456482198130391 ], [ -85.42217501891669, 13.456480463199274 ], [ -85.422178678214664, 13.455921708825327 ], [ -85.421902116484773, 13.455919973665042 ], [ -85.421911265604734, 13.454523087804187 ], [ -85.421358145465433, 13.454519616945605 ], [ -85.421370956973277, 13.452563976992849 ], [ -85.419988168518486, 13.452555295837971 ], [ -85.41999183177812, 13.451996541881483 ], [ -85.419715274844791, 13.451994804814062 ], [ -85.419720770383151, 13.45115667394321 ], [ -85.419997326355698, 13.451158410898477 ], [ -85.419999157798401, 13.450879033891264 ], [ -85.420275713489744, 13.450880770505446 ], [ -85.42028486847839, 13.449483885185959 ], [ -85.41973176033693, 13.449480412027716 ], [ -85.419733591850331, 13.449201035019275 ], [ -85.419180484505418, 13.449197560721156 ], [ -85.419182316617608, 13.448918183781066 ], [ -85.41890576332392, 13.448916446213921 ], [ -85.4189075957147, 13.448637069304802 ], [ -85.418631042780248, 13.448635331471413 ], [ -85.418632875449589, 13.448355954593266 ], [ -85.418356322874388, 13.448354216493648 ], [ -85.418358155822276, 13.448074839646489 ], [ -85.416698843112854, 13.448064404896998 ], [ -85.416697008243958, 13.448343781519522 ], [ -85.416143903679981, 13.448340300765704 ], [ -85.416142068129076, 13.448619677306862 ], [ -85.415865515585608, 13.448617936437019 ], [ -85.415867351456697, 13.448338559933338 ], [ -85.415314247127526, 13.448335077357694 ], [ -85.415316083597233, 13.448055700922549 ], [ -85.41503953181153, 13.44805395921677 ], [ -85.415041368559713, 13.447774582812681 ], [ -85.414764817133332, 13.44777284084077 ], [ -85.414768491144855, 13.447214088088289 ], [ -85.414215389690156, 13.447210603383642 ], [ -85.414219064815342, 13.446651850755467 ], [ -85.412836315065576, 13.446643134056011 ], [ -85.412838154166181, 13.446363757919938 ], [ -85.412285055180945, 13.446360269190093 ], [ -85.412286894879983, 13.446080893122698 ], [ -85.412010345766305, 13.446079148339956 ], [ -85.412019545235296, 13.444682268094272 ], [ -85.411189902931, 13.444677032488249 ], [ -85.411191743659643, 13.444397656532542 ], [ -85.410915196623435, 13.444395910761031 ], [ -85.410922560400095, 13.443278407024206 ], [ -85.410646014683337, 13.443276661099546 ], [ -85.410647855842981, 13.442997285186852 ], [ -85.408435494083122, 13.442983307164013 ], [ -85.408439181397284, 13.442424555921358 ], [ -85.408162636994177, 13.44242280737803 ], [ -85.408164480908439, 13.442143431784705 ], [ -85.407887936864668, 13.442141682975546 ], [ -85.407889781057037, 13.441862307413444 ], [ -85.407060150121737, 13.441857059278066 ], [ -85.407063840300722, 13.441298308360626 ], [ -85.406510754487186, 13.441294808237069 ], [ -85.406514445778413, 13.440736057444655 ], [ -85.407620615003069, 13.440743056176396 ], [ -85.407622459305927, 13.440463680619796 ], [ -85.40789900139049, 13.440465429506425 ], [ -85.407900845331497, 13.440186053905711 ], [ -85.408177387135424, 13.440187802451227 ], [ -85.408181074251871, 13.439629051155174 ], [ -85.407351450877755, 13.439623804834312 ], [ -85.40736989354393, 13.436830049098027 ], [ -85.407093355696901, 13.436828300094369 ], [ -85.407097044366978, 13.436269548945267 ], [ -85.406820507199029, 13.436267799713621 ], [ -85.406827885315593, 13.435150297488955 ], [ -85.404062528594721, 13.435132789997226 ], [ -85.404060680930229, 13.435412165185804 ], [ -85.403784145155001, 13.435410412730599 ], [ -85.403782297128686, 13.435689787874983 ], [ -85.403229225056876, 13.435686281979043 ], [ -85.40322737634888, 13.435965657041461 ], [ -85.400462015158908, 13.435948108983645 ], [ -85.400463867065241, 13.435668734299322 ], [ -85.400187331483252, 13.435666977863015 ], [ -85.400189183667337, 13.435387603210099 ], [ -85.399359578117981, 13.435382332194768 ], [ -85.399361431219418, 13.43510295764899 ], [ -85.39908489643517, 13.435101200075099 ], [ -85.399101575331073, 13.432586829214333 ], [ -85.398825043464413, 13.43258507167802 ], [ -85.398828750061881, 13.432026322602818 ], [ -85.397446094519282, 13.432017530751297 ], [ -85.397453513603125, 13.430900033281601 ], [ -85.39717698389218, 13.430898274153222 ], [ -85.397178838877437, 13.430618899807628 ], [ -85.397455368268666, 13.430620658898089 ], [ -85.397457222892058, 13.430341284508142 ], [ -85.398286810344104, 13.430346559846555 ], [ -85.398297931445029, 13.428670312689542 ], [ -85.398574458756826, 13.428672070301932 ], [ -85.398578164814083, 13.428113321122353 ], [ -85.398301638141561, 13.428111563585738 ], [ -85.39831275721987, 13.426435316119937 ], [ -85.397483183192662, 13.426430042373386 ], [ -85.397486891132488, 13.42587129339406 ], [ -85.397210367175049, 13.425869534948141 ], [ -85.397212221401318, 13.425590160486747 ], [ -85.396935697803016, 13.425588401775643 ], [ -85.396939406768155, 13.4250296529094 ], [ -85.396386360968577, 13.425026134729631 ], [ -85.396388216026992, 13.424746760362716 ], [ -85.396111693506157, 13.42474500085615 ], [ -85.396113548841896, 13.424465626520746 ], [ -85.395837026680212, 13.424463866749051 ], [ -85.395838882293305, 13.424184492445159 ], [ -85.395285838727858, 13.424180972068481 ], [ -85.395283982475704, 13.424460346296458 ], [ -85.394730938429689, 13.424456824631594 ], [ -85.394732795320905, 13.424177450479556 ], [ -85.394456273676894, 13.424175689230502 ], [ -85.394458130845408, 13.423896315110005 ], [ -85.394181609560562, 13.423894553595877 ], [ -85.394185324409918, 13.423335805411558 ], [ -85.392802721775809, 13.423326993675165 ], [ -85.392804580734619, 13.423047619763379 ], [ -85.393081100862588, 13.42304938267872 ], [ -85.393084818014401, 13.422490634759818 ], [ -85.393361337543084, 13.422492397296105 ], [ -85.3933631957361, 13.422213023288993 ], [ -85.39308667652692, 13.422211260790716 ], [ -85.393090393425098, 13.421652512833223 ], [ -85.392813874894529, 13.421650750107968 ], [ -85.392825026491252, 13.419974506309231 ], [ -85.392548509916992, 13.419972743509112 ], [ -85.392552227416516, 13.419413995600797 ], [ -85.392275711520767, 13.419412232573778 ], [ -85.392281288411084, 13.418574110777163 ], [ -85.392557803348666, 13.418575873690093 ], [ -85.392578245177546, 13.415502759522397 ], [ -85.392301733752717, 13.415500997027781 ], [ -85.392303592166414, 13.415221623011986 ], [ -85.392027081100593, 13.415219860252547 ], [ -85.392028939791274, 13.414940486268359 ], [ -85.391475918417314, 13.414936959917025 ], [ -85.391483355311337, 13.413819464220335 ], [ -85.391206845961008, 13.413817700742621 ], [ -85.391208705398, 13.413538326840428 ], [ -85.390655687455009, 13.413534799052675 ], [ -85.390657547488189, 13.413255425220186 ], [ -85.390381038895541, 13.413253660910168 ], [ -85.390388479881807, 13.412136165668212 ], [ -85.390111972605823, 13.412134401207709 ], [ -85.39013057529985, 13.409340663033635 ], [ -85.390407079384104, 13.40934242711335 ], [ -85.390418237053495, 13.407666183671926 ], [ -85.39014173488394, 13.407664419820685 ], [ -85.390145454406593, 13.407105672031625 ], [ -85.390421955937967, 13.407107435806708 ], [ -85.390434970700227, 13.405151818076035 ], [ -85.390711470037942, 13.405153581281969 ], [ -85.390720763431744, 13.403756711091233 ], [ -85.390444265689098, 13.403754948075658 ], [ -85.390446124559901, 13.40347557405631 ], [ -85.390169627175965, 13.40347381077623 ], [ -85.39017148632341, 13.40319443678853 ], [ -85.389894989298213, 13.403192673243961 ], [ -85.389896848722302, 13.402913299287922 ], [ -85.389343855429104, 13.402909771367268 ], [ -85.3893475754261, 13.402351023588292 ], [ -85.388794583567815, 13.402347494609819 ], [ -85.388796444140681, 13.402068120786906 ], [ -85.388243453079383, 13.402064590674488 ], [ -85.388247175373792, 13.401505843161864 ], [ -85.387970680540704, 13.4015040777281 ], [ -85.38797254194327, 13.401224704000283 ], [ -85.387696047468893, 13.401222938302126 ], [ -85.387697909147988, 13.400943564606017 ], [ -85.3868684269205, 13.400938265810886 ], [ -85.386879601844811, 13.399262024185985 ], [ -85.386603109762007, 13.399260257544883 ], [ -85.386614285072369, 13.397584015917694 ], [ -85.386337794942492, 13.397582249203117 ], [ -85.386341520344189, 13.397023502019001 ], [ -85.3860650308918, 13.397021735078336 ], [ -85.386066893847826, 13.396742361514818 ], [ -85.384960937711952, 13.396735290880718 ], [ -85.384964666047082, 13.396176544039925 ], [ -85.384688177750363, 13.396174775701777 ], [ -85.38469004217302, 13.395895402309952 ], [ -85.384137066336791, 13.395891864802891 ], [ -85.384138931354528, 13.395612491481073 ], [ -85.3835859563154, 13.395608952840892 ], [ -85.383587821928202, 13.395329579589108 ], [ -85.383034847686218, 13.395326039815867 ], [ -85.383036713894057, 13.395046666634144 ], [ -85.382760227151707, 13.395044896332207 ], [ -85.38276209363579, 13.394765523182306 ], [ -85.383038580059377, 13.394767293445991 ], [ -85.383040446182179, 13.39448792025142 ], [ -85.383593418511609, 13.394491459795214 ], [ -85.383595283954406, 13.394212086517737 ], [ -85.383871769860221, 13.394213855797862 ], [ -85.383873634941779, 13.39393448247573 ], [ -85.384150120568748, 13.39393625141528 ], [ -85.38415198528908, 13.393656878048505 ], [ -85.384428470637204, 13.39365864664749 ], [ -85.384435927818814, 13.3925411529633 ], [ -85.384712411931972, 13.392542921107099 ], [ -85.384716139630513, 13.391984174150053 ], [ -85.384992623146161, 13.391985941915131 ], [ -85.384994486613039, 13.391706568388775 ], [ -85.385547453126534, 13.391710102935638 ], [ -85.38555304136041, 13.390871982088877 ], [ -85.385829523720943, 13.390873748794313 ], [ -85.385833248360655, 13.39031500145467 ], [ -85.386109730123707, 13.390316767781473 ], [ -85.386113453956398, 13.389758020339793 ], [ -85.38638993512204, 13.389759786287994 ], [ -85.386391796656099, 13.389480412519356 ], [ -85.386668277542924, 13.389482178127144 ], [ -85.386670138715957, 13.389202804313918 ], [ -85.386946619323979, 13.389204569581304 ], [ -85.386944758469582, 13.389483943432683 ], [ -85.388050682574217, 13.389491001632402 ], [ -85.388052542154156, 13.389211627628457 ], [ -85.388329022961173, 13.389213391384651 ], [ -85.388330882180128, 13.388934017336164 ], [ -85.388607362708328, 13.388935780752 ], [ -85.388618515220671, 13.387259536097584 ], [ -85.38889499387713, 13.387261298982521 ], [ -85.388898710405215, 13.386702550636818 ], [ -85.389175188464307, 13.386704313143353 ], [ -85.389177046346248, 13.386424938922769 ], [ -85.389453524126566, 13.386426701089025 ], [ -85.389459096562746, 13.385588578274486 ], [ -85.389735573427188, 13.385590340024292 ], [ -85.389737430502734, 13.385310965701851 ], [ -85.389460953956785, 13.385309203990134 ], [ -85.389462811308491, 13.385029829699372 ], [ -85.38890985897288, 13.385026305445699 ], [ -85.388911716919253, 13.384746931224718 ], [ -85.388635241129577, 13.384745168682779 ], [ -85.388637099352096, 13.384465794493494 ], [ -85.38836062392069, 13.384464031687537 ], [ -85.388371774276933, 13.382787786645784 ], [ -85.388095300796124, 13.382786023766437 ], [ -85.388097159358978, 13.382506649608477 ], [ -85.387820686236395, 13.382504886465172 ], [ -85.387822545075309, 13.382225512338925 ], [ -85.387546072310954, 13.382223748931674 ], [ -85.387549790498511, 13.381665000736209 ], [ -85.388102734793321, 13.381668527096108 ], [ -85.388117600753702, 13.379433533447521 ], [ -85.387841131133513, 13.379431770723633 ], [ -85.387848564370131, 13.378314273897907 ], [ -85.38757209606311, 13.378312511024543 ], [ -85.387577671500551, 13.377474388452306 ], [ -85.38730120418829, 13.37747262539138 ], [ -85.387303062900955, 13.377193251225949 ], [ -85.386750129032421, 13.377189724274514 ], [ -85.386751988339313, 13.376910350178969 ], [ -85.386475521783055, 13.376908586288478 ], [ -85.38648295985962, 13.375791089994797 ], [ -85.386206494616289, 13.37578932595502 ], [ -85.38621207368314, 13.374951203781919 ], [ -85.385935609434398, 13.374949439554738 ], [ -85.38594118907416, 13.374111317438439 ], [ -85.385664725819936, 13.374109553023889 ], [ -85.385672166018466, 13.372992056931766 ], [ -85.385395704076899, 13.372990292368073 ], [ -85.385406865010737, 13.371314048266626 ], [ -85.385130405018032, 13.371312283630227 ], [ -85.385132265343259, 13.37103290962907 ], [ -85.384579346113682, 13.371029379527217 ], [ -85.384581207032753, 13.370750005596049 ], [ -85.384304747795881, 13.370748240130615 ], [ -85.384306608990627, 13.370468866231246 ], [ -85.383477232473609, 13.370463568138788 ], [ -85.383480956644391, 13.369904820550158 ], [ -85.382928040438273, 13.369901287132492 ], [ -85.382929903096141, 13.369621913405037 ], [ -85.382653445371034, 13.369620146281777 ], [ -85.382657171195461, 13.369061398884135 ], [ -85.382380714146436, 13.369059631535608 ], [ -85.382382577312981, 13.368780257865424 ], [ -85.382106120621955, 13.368778490253398 ], [ -85.382107984064049, 13.368499116615068 ], [ -85.381831527731009, 13.368497348739551 ], [ -85.381833391448652, 13.368217975133074 ], [ -85.381556935473625, 13.368216206994079 ], [ -85.381558799466788, 13.367936833419474 ], [ -85.381282343849747, 13.367935065017017 ], [ -85.381286072344565, 13.367376317925125 ], [ -85.381009617403564, 13.367374549297512 ], [ -85.381017075154787, 13.366257055189944 ], [ -85.381293528823676, 13.366258823664406 ], [ -85.381299120736287, 13.365420702901554 ], [ -85.381022668021402, 13.365418934541955 ], [ -85.381030124581216, 13.364301440254897 ], [ -85.380753673178191, 13.364299671746789 ], [ -85.380755537529723, 13.364020298197294 ], [ -85.380479086484598, 13.364018529425838 ], [ -85.380480951111537, 13.363739155908231 ], [ -85.380204500424327, 13.363737386873435 ], [ -85.380210095003548, 13.362899266397079 ], [ -85.379933645310118, 13.362897497175583 ], [ -85.379941105424749, 13.361780003270624 ], [ -85.379664657042923, 13.361778233900786 ], [ -85.379668387480564, 13.36121948698649 ], [ -85.379391939774493, 13.361217717391712 ], [ -85.379393805247318, 13.360938343963273 ], [ -85.379117357899091, 13.360936574105249 ], [ -85.379119223647194, 13.360657200708738 ], [ -85.378842776656825, 13.360655430587475 ], [ -85.378844642680207, 13.360376057222892 ], [ -85.378568196047709, 13.360374286838409 ], [ -85.378570062346327, 13.36009491350576 ], [ -85.378293616071687, 13.360093142858069 ], [ -85.378299215665407, 13.359255022936727 ], [ -85.378575660986527, 13.359256793469365 ], [ -85.378584991201336, 13.357859926613877 ], [ -85.378861434973402, 13.357861696653259 ], [ -85.378863300570742, 13.357582323224594 ], [ -85.379139744065, 13.357584092924141 ], [ -85.379141609301954, 13.357304719450729 ], [ -85.379418052518432, 13.357306488810451 ], [ -85.379419917395026, 13.357027115292304 ], [ -85.378867031637625, 13.357023576348041 ], [ -85.378870762534092, 13.35646482944586 ], [ -85.378594320350913, 13.356463059598195 ], [ -85.378605513924342, 13.354786818967945 ], [ -85.37888195420112, 13.354788588585551 ], [ -85.378889414460474, 13.353671094550553 ], [ -85.378336536488533, 13.353667555320678 ], [ -85.37834026763332, 13.35310880841813 ], [ -85.378063829342707, 13.353107038427801 ], [ -85.378067560952374, 13.352548291576335 ], [ -85.37779112333709, 13.352546521361344 ], [ -85.377792989395658, 13.352267147964364 ], [ -85.37724011492044, 13.352263606706993 ], [ -85.377241981571657, 13.351984233380355 ], [ -85.37751841847161, 13.351986004121351 ], [ -85.377531481612948, 13.3500303903869 ], [ -85.377255046936298, 13.350028619914527 ], [ -85.377260645738701, 13.34919049976167 ], [ -85.376984212054822, 13.349188729103123 ], [ -85.376986078554566, 13.348909355744407 ], [ -85.376709645228289, 13.34890758482295 ], [ -85.376715245424336, 13.348069464823546 ], [ -85.376991677797974, 13.34807123562984 ], [ -85.376999142858807, 13.34695374205411 ], [ -85.376722711755264, 13.346951971401353 ], [ -85.376726444664826, 13.346393224651838 ], [ -85.376173583847859, 13.346389682596184 ], [ -85.376175450873646, 13.346110309288612 ], [ -85.375346160901074, 13.346104994061141 ], [ -85.375348028836655, 13.345825620862399 ], [ -85.374795169690231, 13.345822075948162 ], [ -85.374797038218077, 13.345542702819877 ], [ -85.374520609022468, 13.345540929949371 ], [ -85.374526215302168, 13.344702810641408 ], [ -85.374802643545394, 13.344704583396599 ], [ -85.374813853047129, 13.343028344377169 ], [ -85.374537426708471, 13.343026571852601 ], [ -85.374541163502258, 13.342467825538447 ], [ -85.374264737838502, 13.342466052789614 ], [ -85.374266606488717, 13.342186679661381 ], [ -85.373990181182435, 13.342184906649864 ], [ -85.373992050107333, 13.341905533553673 ], [ -85.373162775381246, 13.341900212827724 ], [ -85.373164645215525, 13.341620839840521 ], [ -85.372335371802677, 13.3416155165199 ], [ -85.372339113247207, 13.341056770757186 ], [ -85.372615537043302, 13.341058545421534 ], [ -85.372624888319606, 13.339661680710266 ], [ -85.372901310569176, 13.3396634548811 ], [ -85.37290691986999, 13.338825335862076 ], [ -85.372630498572349, 13.33882356180669 ], [ -85.372634238527084, 13.338264815838967 ], [ -85.372357817904174, 13.338263041559507 ], [ -85.372363428467438, 13.33742492267538 ], [ -85.372087008836459, 13.337423148210366 ], [ -85.372090749632676, 13.336864402332601 ], [ -85.371261492884173, 13.336859077362492 ], [ -85.371263364169849, 13.336579704529528 ], [ -85.370986945651239, 13.336577928976004 ], [ -85.370988817211369, 13.33629855617516 ], [ -85.370712399050163, 13.336296780359159 ], [ -85.370714270884733, 13.336017407590449 ], [ -85.370437853080929, 13.336015631511991 ], [ -85.370439725189897, 13.335736258775411 ], [ -85.370716142676486, 13.335738034815334 ], [ -85.370718014425435, 13.335458662033815 ], [ -85.370441597256061, 13.335456886032425 ], [ -85.370445341259995, 13.334898140527256 ], [ -85.370168924765196, 13.334896364301976 ], [ -85.370170797020137, 13.334616991578333 ], [ -85.369894380882727, 13.334615215090636 ], [ -85.369896253412037, 13.334335842399142 ], [ -85.369343421892182, 13.334332288598004 ], [ -85.369347168090997, 13.333773543350029 ], [ -85.369070753025724, 13.333771766075175 ], [ -85.369080119358884, 13.332374903036069 ], [ -85.368803705919547, 13.332373125653142 ], [ -85.368805579374765, 13.332093753064692 ], [ -85.368529166292788, 13.332091975419445 ], [ -85.368531040022276, 13.33181260286317 ], [ -85.368254627297631, 13.331810824955614 ], [ -85.368256501301374, 13.331531452431529 ], [ -85.367427264320227, 13.331526117019342 ], [ -85.367431014101697, 13.330967372183553 ], [ -85.36715460248935, 13.33096559318829 ], [ -85.367156477632847, 13.330686220799409 ], [ -85.366880066377831, 13.330684441541894 ], [ -85.366881941795512, 13.330405069185229 ], [ -85.366052709223368, 13.330399729723426 ], [ -85.366054585549364, 13.330120357476252 ], [ -85.365778175089631, 13.330118577092591 ], [ -85.365780051689768, 13.329839204877658 ], [ -85.36522723152531, 13.329835643285112 ], [ -85.365229108716619, 13.329556271141085 ], [ -85.364676289347514, 13.329552708422518 ], [ -85.364680044869502, 13.328993964269927 ], [ -85.364403635879512, 13.328992182536746 ], [ -85.364405513893104, 13.328712810489524 ], [ -85.363576288116249, 13.328707463601154 ], [ -85.363578167037943, 13.328428091663596 ], [ -85.363301758843377, 13.32842630880455 ], [ -85.363303638039099, 13.328146936899293 ], [ -85.361921599256817, 13.32813801828563 ], [ -85.361923479994601, 13.327858646567577 ], [ -85.357500967753211, 13.327830057090951 ], [ -85.357502853519946, 13.327550685987113 ], [ -85.355844416002867, 13.327539945314637 ], [ -85.355842528334136, 13.327819316185312 ], [ -85.355566121906151, 13.327817524981624 ], [ -85.35556423387726, 13.328096895807017 ], [ -85.353352981377569, 13.328082555038002 ], [ -85.353354871942486, 13.327803184523914 ], [ -85.352802059857453, 13.327799596401654 ], [ -85.352803951013115, 13.32752022595905 ], [ -85.352527545348508, 13.327518431485705 ], [ -85.352529436777886, 13.32723906107565 ], [ -85.351147410649247, 13.327230084392154 ], [ -85.351145517634933, 13.327509454607336 ], [ -85.35086911221417, 13.327507658329337 ], [ -85.350867218839554, 13.327787028499117 ], [ -85.35031440748601, 13.327783434962788 ], [ -85.350312513434105, 13.328062805048155 ], [ -85.350036107501353, 13.32806100778981 ], [ -85.350034213089089, 13.328340377829761 ], [ -85.34892858849696, 13.328333185632381 ], [ -85.348930484177231, 13.328053815748552 ], [ -85.347548455938124, 13.328044818929296 ], [ -85.347550353160017, 13.327765449234359 ], [ -85.347273947951393, 13.327763649007229 ], [ -85.347275845446873, 13.32748427934497 ], [ -85.346999440596008, 13.327482478856149 ], [ -85.347001338365047, 13.32720310922657 ], [ -85.346724933871911, 13.32720130847607 ], [ -85.346726831914509, 13.326921938879178 ], [ -85.342580774167558, 13.326894892117197 ], [ -85.342578871370364, 13.327174261126927 ], [ -85.342302467530288, 13.327172455564217 ], [ -85.342300564372579, 13.327451824528348 ], [ -85.342024160256386, 13.327450018625674 ], [ -85.342016545922192, 13.328567494261319 ], [ -85.341740140578892, 13.328565687901037 ], [ -85.341738236569469, 13.328845056754723 ], [ -85.340632614337181, 13.328837828148757 ], [ -85.340630709016111, 13.329117196839135 ], [ -85.340354303243288, 13.329115388896401 ], [ -85.340352397561617, 13.329394757541127 ], [ -85.340075991512677, 13.329392949258342 ], [ -85.340072179384464, 13.329951686450073 ], [ -85.339795772742406, 13.329949877787961 ], [ -85.339793866295835, 13.330229246334959 ], [ -85.33951745937766, 13.330227437332761 ], [ -85.339509831887071, 13.331344911299629 ], [ -85.339233423741561, 13.331343101839522 ], [ -85.3392296091004, 13.331901838705972 ], [ -85.336465523557152, 13.331883726771679 ], [ -85.336459791755075, 13.332721830844109 ], [ -85.335630564037757, 13.332716391042755 ], [ -85.335632475633474, 13.332437023143063 ], [ -85.335079657994669, 13.332433395183116 ], [ -85.335073921173645, 13.333271498626774 ], [ -85.334797511464487, 13.333269684077354 ], [ -85.334793686064202, 13.333828419595658 ], [ -85.334517275761826, 13.333826604666578 ], [ -85.334513449552261, 13.334385340080477 ], [ -85.333684216988686, 13.334379893251402 ], [ -85.333682302866791, 13.33465926083055 ], [ -85.332853069721551, 13.334653811174908 ], [ -85.332851154604413, 13.334933178629406 ], [ -85.332021920877665, 13.334927726147086 ], [ -85.332020004765198, 13.335207093476868 ], [ -85.330085125289187, 13.335194360209087 ], [ -85.330083206912661, 13.335473727256192 ], [ -85.329806795406427, 13.335471906974675 ], [ -85.329804876668859, 13.33575127397587 ], [ -85.329528464886636, 13.335749453353911 ], [ -85.329526545787971, 13.336028820309192 ], [ -85.328973721712728, 13.336025178083384 ], [ -85.328971801935793, 13.336304544953236 ], [ -85.328418977390967, 13.336300901444542 ], [ -85.328417056935749, 13.336580268228937 ], [ -85.328140644407938, 13.336578445983609 ], [ -85.328138723591579, 13.336857812722055 ], [ -85.327862310787822, 13.336855990136211 ], [ -85.327860389610322, 13.337135356828711 ], [ -85.327583976530562, 13.337133533902344 ], [ -85.327582054991908, 13.337412900548873 ], [ -85.327305641636173, 13.337411077281971 ], [ -85.327303719736349, 13.33769044388254 ], [ -85.326750892514156, 13.337686796366635 ], [ -85.326745124647559, 13.338524895892473 ], [ -85.326468710146614, 13.338523071564309 ], [ -85.326466787119244, 13.338802438020519 ], [ -85.325913957606645, 13.338798788381972 ], [ -85.325908186357069, 13.339636887474612 ], [ -85.325631770710871, 13.339635062085032 ], [ -85.325624073826532, 13.340752527293693 ], [ -85.325347656952417, 13.340750701444671 ], [ -85.325341882875321, 13.341588800164997 ], [ -85.325065465090532, 13.341586973896087 ], [ -85.325057764435712, 13.34270443860826 ], [ -85.323952088632055, 13.342697129887794 ], [ -85.323954015131207, 13.342417763877869 ], [ -85.322571922893516, 13.342408621400494 ], [ -85.322569994807566, 13.342687987212161 ], [ -85.321740739009243, 13.342682497993435 ], [ -85.321738809927112, 13.342961863679653 ], [ -85.321462391093078, 13.342960033298162 ], [ -85.321460461649494, 13.343239398938266 ], [ -85.321184042539471, 13.343237568215962 ], [ -85.321182112734405, 13.34351693380995 ], [ -85.320905693348422, 13.343515102746817 ], [ -85.320903763181846, 13.34379446829468 ], [ -85.320627343519874, 13.343792636890704 ], [ -85.320625412991802, 13.344072002392437 ], [ -85.319519733488605, 13.344064673606256 ], [ -85.31952166528626, 13.343785308263429 ], [ -85.318139568426801, 13.343776140703778 ], [ -85.318141501767244, 13.343496775553314 ], [ -85.317588663948541, 13.343493106501066 ], [ -85.317590597879544, 13.343213741423737 ], [ -85.317314179349808, 13.343211906485708 ], [ -85.317316113553986, 13.342932541441757 ], [ -85.31703969538313, 13.342930706242401 ], [ -85.31704356429357, 13.342371976214819 ], [ -85.313726557099145, 13.342349931291794 ], [ -85.313724618857748, 13.342629295830742 ], [ -85.313171784272541, 13.342625617381737 ], [ -85.313169845352149, 13.342904981834497 ], [ -85.312893427804582, 13.342903142118447 ], [ -85.31289148852251, 13.34318250652489 ], [ -85.312062235177379, 13.343176985450341 ], [ -85.312060294898842, 13.34345634973065 ], [ -85.311231040976253, 13.343450825826269 ], [ -85.311229099701237, 13.343730189980366 ], [ -85.310123427118057, 13.343722820399002 ], [ -85.310119541895801, 13.344281548368341 ], [ -85.309566704584697, 13.344277861611008 ], [ -85.309564761272171, 13.344557225506108 ], [ -85.309011923493017, 13.344553537464243 ], [ -85.309009979501269, 13.34483290127295 ], [ -85.30845714125411, 13.344829211946509 ], [ -85.308453251867675, 13.345387939384672 ], [ -85.307900412517711, 13.345384248693581 ], [ -85.307898467122968, 13.345663612323008 ], [ -85.307345627305097, 13.345659920347206 ], [ -85.307343681231032, 13.345939283890168 ], [ -85.306790840945283, 13.345935590629601 ], [ -85.306788894191854, 13.346214954086069 ], [ -85.305683212851747, 13.346207563790584 ], [ -85.305679316671828, 13.346766290363805 ], [ -85.304850054200784, 13.34676074423929 ], [ -85.304848105091665, 13.347040107396026 ], [ -85.304295263018403, 13.347036408393508 ], [ -85.30429331322982, 13.347315771463634 ], [ -85.30401689193846, 13.347313921470469 ], [ -85.304014941787827, 13.347593284494064 ], [ -85.303738520220818, 13.347591434159579 ], [ -85.303730717902781, 13.348708886029245 ], [ -85.303454295107642, 13.348707035233076 ], [ -85.303450393046177, 13.349265761049116 ], [ -85.303173969657848, 13.349263909871457 ], [ -85.303172018242734, 13.349543272729708 ], [ -85.303448441948603, 13.349545123947491 ], [ -85.303442588388378, 13.350383212604058 ], [ -85.303166163729884, 13.350381361265901 ], [ -85.303146645789113, 13.353174989302019 ], [ -85.302870217996613, 13.353173137261269 ], [ -85.302862408301365, 13.354290588135173 ], [ -85.302309550300834, 13.354286882828502 ], [ -85.30230564391502, 13.354845608066306 ], [ -85.302029214342241, 13.35484375488061 ], [ -85.302027260764746, 13.355123117449711 ], [ -85.301750830916191, 13.355121263922474 ], [ -85.301748876976404, 13.355400626444991 ], [ -85.30147244685206, 13.355398772576198 ], [ -85.301464629375872, 13.356516222441284 ], [ -85.301741060770979, 13.356518076470739 ], [ -85.301739106608082, 13.356797438961097 ], [ -85.301462674895248, 13.356795584891476 ], [ -85.301460720369988, 13.357074947335242 ], [ -85.300907856434591, 13.357071238211363 ], [ -85.300901990684594, 13.357909325263002 ], [ -85.300625557826564, 13.357907470128353 ], [ -85.300607955305566, 13.360421730574242 ], [ -85.300331519629452, 13.360419874776408 ], [ -85.30032760683126, 13.360978599168785 ], [ -85.300051170561446, 13.360976742989036 ], [ -85.300047256948915, 13.361535467275285 ], [ -85.299770820085385, 13.361533610713597 ], [ -85.299766905658473, 13.362092334893694 ], [ -85.299490468201185, 13.362090477950042 ], [ -85.299488510602856, 13.362369839990226 ], [ -85.298106322356517, 13.362360550547528 ], [ -85.298104363124182, 13.362639912380116 ], [ -85.295339986602571, 13.362621310475129 ], [ -85.295343911379675, 13.362062587609154 ], [ -85.295067474594404, 13.362060725840697 ], [ -85.295069437233607, 13.361781364438375 ], [ -85.294793000808241, 13.361779502408693 ], [ -85.294794963720477, 13.361500141040255 ], [ -85.294518527655001, 13.361498278749362 ], [ -85.294520490840256, 13.361218917414821 ], [ -85.293967619471232, 13.36121519200911 ], [ -85.293969583247303, 13.360935830748815 ], [ -85.293416712682259, 13.360932104217696 ], [ -85.293418677049146, 13.360652743031672 ], [ -85.291483633622676, 13.360639690957527 ], [ -85.291485600169352, 13.360360330047738 ], [ -85.290103429146612, 13.360350998294344 ], [ -85.290105397237383, 13.360071637580228 ], [ -85.289828963477149, 13.360069770365474 ], [ -85.289826995068566, 13.360349131039149 ], [ -85.288997693087609, 13.360343527464527 ], [ -85.289001631766581, 13.359784806353462 ], [ -85.288725198492912, 13.359782937973179 ], [ -85.288729137627598, 13.359224216917299 ], [ -85.288452705031716, 13.359222348316473 ], [ -85.288458614349736, 13.358384266805793 ], [ -85.288182182749338, 13.358382398024927 ], [ -85.288184152749807, 13.358103037548974 ], [ -85.287907721509399, 13.358101168507133 ], [ -85.287917572425641, 13.356704366233251 ], [ -85.288194002077432, 13.356706235072661 ], [ -85.288197941493621, 13.356147514037087 ], [ -85.286539368028812, 13.356136296965365 ], [ -85.286541339575564, 13.355856936680933 ], [ -85.284606341346944, 13.355843836667145 ], [ -85.284598445994348, 13.356961276631022 ], [ -85.284322016574393, 13.356959403832613 ], [ -85.284318067992217, 13.357518123694785 ], [ -85.283765208008404, 13.357514377031373 ], [ -85.283761257974987, 13.358073096705475 ], [ -85.283484827411101, 13.358071222840431 ], [ -85.283478901069472, 13.358909302181532 ], [ -85.283202469594698, 13.358907427893255 ], [ -85.28319851783921, 13.359466147340594 ], [ -85.282369221762437, 13.359460522423293 ], [ -85.282367244863693, 13.359739882015473 ], [ -85.281814380388795, 13.35973613048195 ], [ -85.281804492040038, 13.361132927940002 ], [ -85.280975190878621, 13.361127297768922 ], [ -85.280971233316123, 13.361686016463199 ], [ -85.280141930629426, 13.361680383334477 ], [ -85.280139950826921, 13.361959742549967 ], [ -85.278481344692253, 13.361948467907046 ], [ -85.278479362937517, 13.362227826871933 ], [ -85.278202928412497, 13.362225946668689 ], [ -85.27820094629466, 13.362505305586421 ], [ -85.277924511494277, 13.362503425040913 ], [ -85.277926493929954, 13.3622240661639 ], [ -85.277373625092338, 13.3622203042497 ], [ -85.277375608118433, 13.361940945447712 ], [ -85.276546306134222, 13.361935300437091 ], [ -85.276544322154621, 13.362214659116836 ], [ -85.275438585499586, 13.362207128051448 ], [ -85.275436600203307, 13.362486486561664 ], [ -85.275160165828055, 13.362484603000681 ], [ -85.275156194463847, 13.363043319920203 ], [ -85.27487975949542, 13.363041435976085 ], [ -85.274877773427448, 13.363320794385388 ], [ -85.274324902982571, 13.363317025510865 ], [ -85.274320929439128, 13.363875742146924 ], [ -85.274044493644794, 13.363873857175687 ], [ -85.274042506487163, 13.364153215443235 ], [ -85.273766070417523, 13.364151330129598 ], [ -85.273762095330397, 13.364710046563724 ], [ -85.273485658667553, 13.364708160866847 ], [ -85.273483670738031, 13.36498751903342 ], [ -85.273207233799866, 13.364985632994111 ], [ -85.273203257168873, 13.36554434922625 ], [ -85.272926819637476, 13.365542462803653 ], [ -85.272922842189104, 13.366101178928329 ], [ -85.272646404064446, 13.366099292122422 ], [ -85.272644414954229, 13.366378650134248 ], [ -85.272920853396826, 13.366380536981001 ], [ -85.272912897773864, 13.367497969127227 ], [ -85.273189337530908, 13.367499855835709 ], [ -85.27318734882968, 13.367779213896995 ], [ -85.272910908754639, 13.367777327147673 ], [ -85.272906930580049, 13.368336043169217 ], [ -85.272630489911649, 13.368334156036529 ], [ -85.272626510919466, 13.368892871950594 ], [ -85.272350069657676, 13.368890984434511 ], [ -85.272346089847886, 13.369449700241081 ], [ -85.27206964799268, 13.369447812341583 ], [ -85.272059696083346, 13.370844601540878 ], [ -85.271783252680549, 13.370842713135328 ], [ -85.271773298045474, 13.372239501969084 ], [ -85.272049743038664, 13.372241390578978 ], [ -85.272037797886327, 13.373917537211911 ], [ -85.27176135098442, 13.373915648356803 ], [ -85.271759359648598, 13.374195006065516 ], [ -85.2709300182443, 13.374189337566667 ], [ -85.270928025908589, 13.374468695146289 ], [ -85.269822236694225, 13.374461132758761 ], [ -85.269820243040442, 13.374740490168302 ], [ -85.269543795525408, 13.37473859877594 ], [ -85.26954180150797, 13.375017956138114 ], [ -85.268988905969664, 13.375014172366038 ], [ -85.268986911270403, 13.37529352963989 ], [ -85.268710463247132, 13.37529163726016 ], [ -85.268700487477417, 13.376688423327973 ], [ -85.265659544541791, 13.376667584975422 ], [ -85.265651549105016, 13.377785011910348 ], [ -85.2650986483997, 13.377781218866437 ], [ -85.265096648790063, 13.378060575501987 ], [ -85.264820198183386, 13.37805867848615 ], [ -85.264818198209881, 13.378338035074217 ], [ -85.264541747327769, 13.378336137715435 ], [ -85.264535746178836, 13.379174207317776 ], [ -85.264812198015747, 13.379176104799681 ], [ -85.264808197658255, 13.379734817917726 ], [ -85.265084650174543, 13.379736715179769 ], [ -85.265078650251127, 13.380574784931534 ], [ -85.265355103765117, 13.380576682014722 ], [ -85.265349104386232, 13.381414751831485 ], [ -85.265072649917286, 13.381412854625212 ], [ -85.265064648833672, 13.382530280793089 ], [ -85.264788193134152, 13.382528383120688 ], [ -85.264786192430876, 13.382807739605482 ], [ -85.263403912983861, 13.382798246508095 ], [ -85.263399908256702, 13.383356959047761 ], [ -85.263123451859101, 13.38335505944009 ], [ -85.263121449108667, 13.383634415659165 ], [ -85.262568535805244, 13.383630615455573 ], [ -85.262566532372375, 13.38390997158602 ], [ -85.262290075466581, 13.383908070990078 ], [ -85.26228807166963, 13.384187427072977 ], [ -85.26201161448833, 13.384185526133894 ], [ -85.262007606120576, 13.384744238198111 ], [ -85.261731148345348, 13.384742336874773 ], [ -85.261725134495777, 13.385580404799343 ], [ -85.262001593226287, 13.385582306246013 ], [ -85.261995579920807, 13.386420374235792 ], [ -85.262272039649545, 13.386422275503687 ], [ -85.262258009233662, 13.388377767541529 ], [ -85.262534471234687, 13.388379668795002 ], [ -85.262532467025352, 13.388659024815672 ], [ -85.263085391793084, 13.38866282649836 ], [ -85.263083388175104, 13.388942182594741 ], [ -85.263912776603732, 13.388947882975854 ], [ -85.263888741094732, 13.392300157107215 ], [ -85.263612274419486, 13.392298256789559 ], [ -85.263600252288413, 13.393974393260024 ], [ -85.264153189505379, 13.393978194085841 ], [ -85.264149183037787, 13.39453690635523 ], [ -85.264425652347867, 13.394538806396831 ], [ -85.264423649364289, 13.394818162562887 ], [ -85.264700119035879, 13.394820062343243 ], [ -85.264698116325363, 13.395099418543886 ], [ -85.26442164633508, 13.395097518722482 ], [ -85.264411630504569, 13.396494299423535 ], [ -85.264688102088371, 13.396496199450173 ], [ -85.264684096074205, 13.397054911767462 ], [ -85.264407623852932, 13.397053011658729 ], [ -85.264401613533224, 13.397891079963051 ], [ -85.264678086710731, 13.397892980194927 ], [ -85.264676083498316, 13.398172336324489 ], [ -85.264952557037432, 13.398174236295038 ], [ -85.264950554098149, 13.398453592459184 ], [ -85.265227027998847, 13.398455492168392 ], [ -85.26522502533274, 13.398734848367104 ], [ -85.265501499595032, 13.39873674781496 ], [ -85.265497494763551, 13.399295460275059 ], [ -85.265221019863688, 13.399293560745148 ], [ -85.265217014212169, 13.399852273097343 ], [ -85.264940538717511, 13.399850373182961 ], [ -85.264938535504513, 13.400129729308329 ], [ -85.264662059733865, 13.400127829050495 ], [ -85.264656048864666, 13.400965897264692 ], [ -85.264103095538914, 13.400962095595453 ], [ -85.264095077856993, 13.402079519462148 ], [ -85.263818599982969, 13.402077618009624 ], [ -85.263816595129512, 13.402356973919073 ], [ -85.263263638872303, 13.402353170024483 ], [ -85.263261633335432, 13.40263252584533 ], [ -85.262985154952233, 13.402630623403248 ], [ -85.262983149050811, 13.402909979176545 ], [ -85.262430191775309, 13.402906173302764 ], [ -85.262426178559835, 13.403464884665599 ], [ -85.26214969934864, 13.403462981192783 ], [ -85.262143678226025, 13.404301048065237 ], [ -85.261867198100973, 13.4042991441666 ], [ -85.261865190649772, 13.40457849973671 ], [ -85.261312229890535, 13.40457469094965 ], [ -85.261310221755764, 13.404854046431062 ], [ -85.261033741121594, 13.404852141542621 ], [ -85.261031732622158, 13.405131496976434 ], [ -85.26075525171197, 13.405129591744332 ], [ -85.260751233937995, 13.405688302510292 ], [ -85.260474752432827, 13.405686396893373 ], [ -85.260470733837991, 13.406245107551186 ], [ -85.259641287666398, 13.406239388638214 ], [ -85.259637266974693, 13.406798099023227 ], [ -85.259360784365441, 13.40679619203145 ], [ -85.25934670826976, 13.408751677887073 ], [ -85.258793738714004, 13.408747862419309 ], [ -85.258787703500644, 13.409585927441906 ], [ -85.259064189214172, 13.409587835450644 ], [ -85.259050107680622, 13.411543320565212 ], [ -85.26015605989889, 13.411550950726422 ], [ -85.260146006669686, 13.412947726437483 ], [ -85.259869516955007, 13.412945819145424 ], [ -85.259867505852753, 13.413225174227069 ], [ -85.259591015861901, 13.41322326659113 ], [ -85.259589004394698, 13.413502621625138 ], [ -85.258759533722511, 13.413496896777453 ], [ -85.258757521252065, 13.413776251681462 ], [ -85.257928050009269, 13.413770523985631 ], [ -85.257926036535494, 13.414049878759581 ], [ -85.257373055283665, 13.414046058699592 ], [ -85.257371041125722, 13.414325413384645 ], [ -85.255159115286418, 13.414310120705119 ], [ -85.255144997022015, 13.416265601009501 ], [ -85.255421489835655, 13.416267513942936 ], [ -85.255413422523389, 13.417384931282388 ], [ -85.25568991665709, 13.417386844078079 ], [ -85.255685883364194, 13.41794555279149 ], [ -85.256238873037873, 13.417949377639433 ], [ -85.256232824670136, 13.418787440908506 ], [ -85.256509320529418, 13.418789353001964 ], [ -85.256507304634411, 13.419068707453285 ], [ -85.256783800856056, 13.419070619285122 ], [ -85.256775738094746, 13.420188037190611 ], [ -85.257052235636692, 13.420189948884516 ], [ -85.257050220151072, 13.420469303385934 ], [ -85.258432710102909, 13.420478857518255 ], [ -85.258428682187642, 13.42103756691378 ], [ -85.259258178590912, 13.421043296005585 ], [ -85.259256165522658, 13.421322650817192 ], [ -85.259532664729079, 13.42132455994982 ], [ -85.259530651934384, 13.421603914796124 ], [ -85.259807151503168, 13.421605823667008 ], [ -85.259805138982074, 13.421885178548004 ], [ -85.260358138887256, 13.421888995463327 ], [ -85.260356126959181, 13.422168350420165 ], [ -85.260632627295593, 13.422170258464584 ], [ -85.260630615641134, 13.422449613456092 ], [ -85.26090711633988, 13.42245152123872 ], [ -85.260905104959079, 13.422730876264893 ], [ -85.261181606020173, 13.422732783785712 ], [ -85.261177583760144, 13.423291493900903 ], [ -85.26145408550299, 13.423293401201033 ], [ -85.261448052728213, 13.424131466448646 ], [ -85.261171550027072, 13.424129559025134 ], [ -85.261161492890537, 13.425526334102674 ], [ -85.261437997188963, 13.425528241731829 ], [ -85.261435985943919, 13.42580759676904 ], [ -85.261712490604751, 13.4258095041363 ], [ -85.26171047963345, 13.426088859208155 ], [ -85.261986984656701, 13.426090766313516 ], [ -85.261984973959173, 13.426370121420012 ], [ -85.262261479344829, 13.426372028263453 ], [ -85.262259468921101, 13.426651383404582 ], [ -85.263088986294008, 13.426657102240002 ], [ -85.263078938282504, 13.428053878464954 ], [ -85.263631953274171, 13.428057689917502 ], [ -85.263629944173871, 13.428337045225224 ], [ -85.263906452053575, 13.428338950537961 ], [ -85.26389640746487, 13.429735727184783 ], [ -85.26334338855267, 13.42973191584549 ], [ -85.263339369119123, 13.430290626294585 ], [ -85.263062859088166, 13.430288720088104 ], [ -85.263050797773303, 13.431964851033429 ], [ -85.263327309722001, 13.431966757486414 ], [ -85.263325299662583, 13.432246112662385 ], [ -85.263601811973814, 13.432248018853285 ], [ -85.263599802188352, 13.432527374063852 ], [ -85.263876314862131, 13.432529279992655 ], [ -85.263872295793519, 13.433087990476496 ], [ -85.263595782480408, 13.43308608446555 ], [ -85.263593772557911, 13.433365439656685 ], [ -85.263317258968016, 13.433363533301469 ], [ -85.263313238346612, 13.433922243582142 ], [ -85.264972324365374, 13.433933677658228 ], [ -85.264970315904336, 13.434213033035219 ], [ -85.26524683071051, 13.434214937694371 ], [ -85.265244822523542, 13.434494293105924 ], [ -85.266903914178272, 13.434505714939359 ], [ -85.266901907863968, 13.434785070590534 ], [ -85.268284487018619, 13.434794580651275 ], [ -85.268282482257334, 13.435073936500883 ], [ -85.269112031222562, 13.435079639021403 ], [ -85.269110027374907, 13.435358994987389 ], [ -85.269663060871622, 13.435362795233415 ], [ -85.269661057617924, 13.435642151274807 ], [ -85.269937574750116, 13.435644050983877 ], [ -85.269935571770631, 13.43592340705972 ], [ -85.270212089265314, 13.435925306506457 ], [ -85.27020207528399, 13.437322086993129 ], [ -85.27047859442024, 13.437323986341188 ], [ -85.270474589148748, 13.437882698572343 ], [ -85.270751108967303, 13.437884597698927 ], [ -85.270749106583096, 13.438163953845702 ], [ -85.271302146987964, 13.438167751270756 ], [ -85.271300145197884, 13.438447107492847 ], [ -85.270747104153415, 13.438443309985994 ], [ -85.270741096591337, 13.439281378367999 ], [ -85.271017618051715, 13.439283277395797 ], [ -85.271015615759865, 13.439562633551084 ], [ -85.271292137582805, 13.439564532316441 ], [ -85.271290135565323, 13.439843888506141 ], [ -85.27211970224981, 13.439849583104788 ], [ -85.272121703307732, 13.439570226792432 ], [ -85.272398225301387, 13.439572124344403 ], [ -85.272400225994005, 13.439292767984696 ], [ -85.272676747710506, 13.439294665192454 ], [ -85.272678748037833, 13.439015308785407 ], [ -85.27323179095913, 13.439019102209192 ], [ -85.273233790601338, 13.438739745713955 ], [ -85.273510311806135, 13.438741641930001 ], [ -85.273508312483756, 13.439020998466082 ], [ -85.275167442526737, 13.439032369637381 ], [ -85.275153459432289, 13.440987866923118 ], [ -85.274600411436097, 13.440984077174695 ], [ -85.274596414578227, 13.44154279046337 ], [ -85.275702513300189, 13.441550369073116 ], [ -85.275700516082793, 13.441829725870949 ], [ -85.275977041189677, 13.441831619805686 ], [ -85.27597504424682, 13.442110976637828 ], [ -85.276251569716209, 13.442112870309945 ], [ -85.276249573047906, 13.442392227176382 ], [ -85.276526098879785, 13.442394120585863 ], [ -85.276514119837188, 13.444070261893133 ], [ -85.276237592085636, 13.444068368239007 ], [ -85.276235595099848, 13.444347725060101 ], [ -85.275959067070886, 13.444345831061735 ], [ -85.275957069719766, 13.444625187835568 ], [ -85.275404013149654, 13.444621398846875 ], [ -85.275400017031359, 13.445180112211938 ], [ -85.274293901842469, 13.445172530266456 ], [ -85.274291902435252, 13.445451886776024 ], [ -85.274015373424589, 13.445449990490129 ], [ -85.274013373651954, 13.445729346952385 ], [ -85.273460315118498, 13.44572555338846 ], [ -85.273458314660431, 13.446004909762561 ], [ -85.273181785137652, 13.446003012484514 ], [ -85.273177783445163, 13.446561725131581 ], [ -85.272901253325003, 13.446559827468329 ], [ -85.272885242176983, 13.448794677470513 ], [ -85.273438307580918, 13.448798473147129 ], [ -85.273436306623097, 13.449077829449935 ], [ -85.273989372837818, 13.449081623993973 ], [ -85.27398737247475, 13.44936098037198 ], [ -85.273434305619816, 13.449357185746262 ], [ -85.273432304571131, 13.449636542036103 ], [ -85.273155770887541, 13.449634644227036 ], [ -85.273153769473282, 13.449914000469546 ], [ -85.272600701593845, 13.449910203858936 ], [ -85.272602703648317, 13.449630847698138 ], [ -85.270666969655579, 13.449617550284172 ], [ -85.270662961019525, 13.450176262026845 ], [ -85.270939494959208, 13.450178162649976 ], [ -85.2709254655406, 13.452133653831456 ], [ -85.270648929359893, 13.452131752921975 ], [ -85.270646924655054, 13.452411108738199 ], [ -85.270093851781468, 13.452407305926481 ], [ -85.270089840954498, 13.452966017375802 ], [ -85.269260230043486, 13.45296031063527 ], [ -85.269258223601128, 13.453239666227397 ], [ -85.268981686396103, 13.453237763332291 ], [ -85.2689756658351, 13.454075829946921 ], [ -85.268699127712196, 13.454073926625282 ], [ -85.26869511313663, 13.454632637587368 ], [ -85.268418574416032, 13.454630733880123 ], [ -85.268416566739646, 13.454910089310475 ], [ -85.268140027741595, 13.454908185258564 ], [ -85.268138019699407, 13.455187540641459 ], [ -85.268414559017714, 13.455189444734337 ], [ -85.268408535578473, 13.456027510967008 ], [ -85.268685075900351, 13.456029414879062 ], [ -85.268673029713227, 13.457705547415026 ], [ -85.268119945268708, 13.45770173879561 ], [ -85.268115928227175, 13.458260449425168 ], [ -85.267839385428445, 13.458258544577859 ], [ -85.267837376518983, 13.458537899841927 ], [ -85.267560833442715, 13.458535994649854 ], [ -85.26755078660976, 13.459932770667974 ], [ -85.268103876008681, 13.45993658115813 ], [ -85.268101867146058, 13.460215936424248 ], [ -85.268378412230092, 13.460217841254561 ], [ -85.268364351158326, 13.462173328222477 ], [ -85.270023636017825, 13.462184752543768 ], [ -85.270013600641434, 13.463581529983163 ], [ -85.270566699141156, 13.46358533606848 ], [ -85.270570712146451, 13.463026624948501 ], [ -85.27084726081948, 13.463028527453476 ], [ -85.270849266933396, 13.462749171842844 ], [ -85.271678912247438, 13.462754877411701 ], [ -85.2716769070949, 13.463034233145029 ], [ -85.27223000482536, 13.463038035419919 ], [ -85.272228000268242, 13.463317391228523 ], [ -85.273887296406741, 13.463328791004823 ], [ -85.273889299041073, 13.463049434951076 ], [ -85.274165848226346, 13.463051333809299 ], [ -85.274167850494791, 13.462771977708236 ], [ -85.274444399402242, 13.46277387622173 ], [ -85.274442397454251, 13.46305323236362 ], [ -85.274718946724789, 13.463055130614048 ], [ -85.274712941569732, 13.463893199123257 ], [ -85.276925344959437, 13.4639083751653 ], [ -85.276923345714167, 13.464187731648389 ], [ -85.278029549712969, 13.464195312538367 ], [ -85.278023555551073, 13.465033382437733 ], [ -85.278300107618662, 13.465035277022618 ], [ -85.278288119994329, 13.4667114168906 ], [ -85.278564674027692, 13.466713311415919 ], [ -85.278566671757815, 13.466433954746746 ], [ -85.280225994927662, 13.466445315270695 ], [ -85.280223999120864, 13.466724672184109 ], [ -85.28050055345183, 13.466726564581521 ], [ -85.280498557920339, 13.467005921529136 ], [ -85.281051667350866, 13.467009705493346 ], [ -85.28105366224122, 13.466730348464379 ], [ -85.281330216699629, 13.466732239949829 ], [ -85.281332211224196, 13.466452882873716 ], [ -85.281608765404513, 13.466454774014517 ], [ -85.281610759563293, 13.466175416891261 ], [ -85.282163867410205, 13.466179198179624 ], [ -85.282165860882657, 13.46589984096858 ], [ -85.282718968258266, 13.465903620959768 ], [ -85.282716975426894, 13.466182978252085 ], [ -85.282993529498896, 13.466184867832352 ], [ -85.283001499271023, 13.465067438461679 ], [ -85.285213923116672, 13.465082542861582 ], [ -85.285211933305618, 13.46536190053874 ], [ -85.28548848679759, 13.465363787261513 ], [ -85.285484507681147, 13.465922502677511 ], [ -85.285761061856547, 13.465924389177445 ], [ -85.285759072551187, 13.466203746916278 ], [ -85.286588736293169, 13.466209404713886 ], [ -85.286586747904337, 13.46648876256787 ], [ -85.286863302890239, 13.466490647932982 ], [ -85.286861314776871, 13.466770005821015 ], [ -85.286584759470401, 13.466768120415372 ], [ -85.286580782467269, 13.467326836090914 ], [ -85.286304226561995, 13.467324950300195 ], [ -85.286302237672189, 13.467604308087697 ], [ -85.286025681488681, 13.467602421952424 ], [ -85.286023692233172, 13.467881779692892 ], [ -85.285747135771416, 13.467879893213057 ], [ -85.285743156483846, 13.468438608593424 ], [ -85.286019713586796, 13.468440495154368 ], [ -85.286017724195929, 13.468719852875379 ], [ -85.286570839170111, 13.468723625166264 ], [ -85.286568850375374, 13.469002982961875 ], [ -85.287121966160143, 13.469006754117672 ], [ -85.287119977961552, 13.469286111987861 ], [ -85.287396536238049, 13.469287997150214 ], [ -85.287394548315021, 13.469567355054435 ], [ -85.287671106954491, 13.46956923995325 ], [ -85.287665143876836, 13.470407313748542 ], [ -85.288218263206588, 13.470411082877034 ], [ -85.288216276065214, 13.470690440876838 ], [ -85.288492836114216, 13.47069232502546 ], [ -85.288486875381793, 13.471530399107433 ], [ -85.289316558668631, 13.471536050093142 ], [ -85.289314572629792, 13.471815408228942 ], [ -85.289867695673792, 13.471819174113151 ], [ -85.289869681071238, 13.471539815896419 ], [ -85.290146242335936, 13.471541698341898 ], [ -85.290144257259186, 13.47182105659909 ], [ -85.290973942268863, 13.47182670223223 ], [ -85.29097592638351, 13.471547343853706 ], [ -85.291252487817175, 13.471549225082763 ], [ -85.291250504023225, 13.471828583501715 ], [ -85.291803627658624, 13.471832345128348 ], [ -85.291791727798923, 13.473508495990908 ], [ -85.292068291604281, 13.473510376590523 ], [ -85.292056392050327, 13.475186527462027 ], [ -85.292609523636855, 13.475190288233627 ], [ -85.292607540862079, 13.475469646770311 ], [ -85.293160673258981, 13.475473406405918 ], [ -85.293158691080848, 13.475752765016891 ], [ -85.293435257663376, 13.475754644418776 ], [ -85.293431293813953, 13.476313361702024 ], [ -85.293707861080279, 13.476315240880449 ], [ -85.293705879408989, 13.476594599552715 ], [ -85.293982447038303, 13.476596478467286 ], [ -85.293980465642932, 13.476875837173433 ], [ -85.293427329784805, 13.476872078959323 ], [ -85.293419401187407, 13.477989513396054 ], [ -85.293695970378778, 13.477991392816724 ], [ -85.29368804234602, 13.479108827311144 ], [ -85.293964612863064, 13.479110706589021 ], [ -85.29396064921896, 13.479669423878033 ], [ -85.294237220419959, 13.479671302932353 ], [ -85.294233257238005, 13.480230020276132 ], [ -85.294786401050146, 13.480233777633279 ], [ -85.29478442003365, 13.480513136376139 ], [ -85.295890709447306, 13.480520647600017 ], [ -85.295886749847142, 13.481079365388929 ], [ -85.296163322947748, 13.481081242514733 ], [ -85.296159363810034, 13.481639960358324 ], [ -85.296435937594637, 13.481641837260414 ], [ -85.296428020064766, 13.482759273030965 ], [ -85.300023499784473, 13.482783647156301 ], [ -85.300021524462792, 13.483063006606155 ], [ -85.303063862534131, 13.483083591130603 ], [ -85.303050058748084, 13.485039110192268 ], [ -85.303326637435362, 13.485040979967403 ], [ -85.303322693736504, 13.485599699721206 ], [ -85.303599273107835, 13.485601569272193 ], [ -85.303595329872422, 13.486160289080326 ], [ -85.304425070164442, 13.486165896147401 ], [ -85.304423099442985, 13.486445256162121 ], [ -85.304699679945244, 13.48644712461568 ], [ -85.304695739010597, 13.487005844705884 ], [ -85.305802064007352, 13.487013315796277 ], [ -85.305804033212581, 13.486733955594023 ], [ -85.309952753097718, 13.486761928194257 ], [ -85.309954717441897, 13.486482567384957 ], [ -85.31023129878092, 13.486484429749202 ], [ -85.310237190583209, 13.485646347162431 ], [ -85.311066931961079, 13.48565193206861 ], [ -85.31106889484299, 13.485372571073464 ], [ -85.311345475064726, 13.485374432060006 ], [ -85.31134940005299, 13.484815709970343 ], [ -85.311902559337412, 13.484819430870292 ], [ -85.311900597507616, 13.485098791998265 ], [ -85.312177177533485, 13.485100652031536 ], [ -85.312179139042215, 13.484821290863623 ], [ -85.313008878406905, 13.484826869017034 ], [ -85.313010838908042, 13.484547507722864 ], [ -85.313287418458629, 13.484549366458561 ], [ -85.313279577471761, 13.485666811755976 ], [ -85.313002996636953, 13.485664952860633 ], [ -85.313001035958123, 13.485944314128865 ], [ -85.313554198311621, 13.485948031694925 ], [ -85.313552238230557, 13.486227393036485 ], [ -85.314105401392951, 13.486231109464509 ], [ -85.31410344190968, 13.486510470879375 ], [ -85.314933187929086, 13.486516043357568 ], [ -85.314923394663538, 13.487912850932835 ], [ -85.315476562095924, 13.487916564794578 ], [ -85.315478520195512, 13.487637203212767 ], [ -85.315755103653032, 13.487639059647025 ], [ -85.315772721663478, 13.485124804760208 ], [ -85.316325882923678, 13.485128515998037 ], [ -85.31632979626508, 13.484569792459146 ], [ -85.316606376315491, 13.484571647541735 ], [ -85.316608332598648, 13.484292285722727 ], [ -85.317438072036381, 13.484297849024463 ], [ -85.317440027312102, 13.484018487079515 ], [ -85.317716606886819, 13.484020340864777 ], [ -85.317718561797193, 13.48374097887354 ], [ -85.319101458689204, 13.483750243034681 ], [ -85.319099505383988, 13.484029605224864 ], [ -85.319376085208091, 13.484031457183629 ], [ -85.319374132179647, 13.484310819407094 ], [ -85.319650712366325, 13.484312671101209 ], [ -85.319644853978673, 13.485150757851994 ], [ -85.319368272828825, 13.485148906038592 ], [ -85.31936241307973, 13.485986992611739 ], [ -85.319638995192818, 13.485988844544426 ], [ -85.319637042175714, 13.48626820676227 ], [ -85.319913624651406, 13.486270058430254 ], [ -85.319899954540631, 13.488225594051908 ], [ -85.320453124112319, 13.488229297030914 ], [ -85.32045117170469, 13.488508659316135 ], [ -85.320727756873964, 13.4885105103886 ], [ -85.320725804743276, 13.488789872707077 ], [ -85.321002390275211, 13.488791723514755 ], [ -85.321000438421464, 13.489071085866472 ], [ -85.321277024316061, 13.489072936409343 ], [ -85.321275072739283, 13.489352298794305 ], [ -85.321551658996569, 13.489354149072357 ], [ -85.321537998969774, 13.491309685863536 ], [ -85.321814587516954, 13.491311536115028 ], [ -85.321812636228998, 13.491590898527534 ], [ -85.322089225138896, 13.491592748514146 ], [ -85.322087274127981, 13.491872110959877 ], [ -85.322363863400597, 13.491873960681591 ], [ -85.322359961888722, 13.492432685632991 ], [ -85.322636551845306, 13.492434535129489 ], [ -85.32263070020997, 13.493272622627032 ], [ -85.32290729117183, 13.493274471937973 ], [ -85.322901440102825, 13.4941125594962 ], [ -85.323178032070004, 13.494114408621545 ], [ -85.323176081946642, 13.494393771167662 ], [ -85.322899489658155, 13.494391922002638 ], [ -85.322895588636328, 13.494950646996056 ], [ -85.324001960609522, 13.494958042145546 ], [ -85.324005859060819, 13.494399316834766 ], [ -85.324559044010769, 13.494403012422861 ], [ -85.324555146844759, 13.494961737892243 ], [ -85.325108333245652, 13.494965432420241 ], [ -85.32510638523911, 13.495244795224474 ], [ -85.325659572448288, 13.49524848861302 ], [ -85.325657625040321, 13.495527851490023 ], [ -85.326487407128511, 13.495533389406546 ], [ -85.326502977446196, 13.49329848525835 ], [ -85.326779568987845, 13.493300330304383 ], [ -85.326773731413127, 13.494138419527379 ], [ -85.327326916548273, 13.494142108943045 ], [ -85.327324971244536, 13.494421472083578 ], [ -85.329537716009071, 13.494436217876341 ], [ -85.329539658742334, 13.494156854419389 ], [ -85.330092844703941, 13.494160537741886 ], [ -85.330094786750607, 13.493881174199407 ], [ -85.330371379472027, 13.493883015364158 ], [ -85.33037720438432, 13.4930449245793 ], [ -85.332036755796153, 13.493055964459302 ], [ -85.332034816130388, 13.493335328297659 ], [ -85.33341777838065, 13.493344520017454 ], [ -85.333421654455435, 13.492785791939749 ], [ -85.333974838358841, 13.492789466337461 ], [ -85.333976775687873, 13.492510102210025 ], [ -85.334253367380086, 13.492511938912518 ], [ -85.334255304343969, 13.492232574739186 ], [ -85.334808487209401, 13.492236247151485 ], [ -85.334810423486928, 13.491956882892854 ], [ -85.335087014660118, 13.491958718602678 ], [ -85.335085078703869, 13.492238082900704 ], [ -85.335638261816271, 13.492241753485295 ], [ -85.335636326458683, 13.492521117855615 ], [ -85.335912918397881, 13.492522952730363 ], [ -85.335914853434176, 13.492243588320664 ], [ -85.336468036793406, 13.492247257077544 ], [ -85.336469971143373, 13.491967892582629 ], [ -85.33674656256342, 13.491969726464781 ], [ -85.336748496548324, 13.49169036192402 ], [ -85.337025087688218, 13.491692195462209 ], [ -85.337027021308103, 13.491412830875619 ], [ -85.338133384993768, 13.491420161824966 ], [ -85.33813531728488, 13.49114079707455 ], [ -85.338965089516819, 13.491146291970319 ], [ -85.338967020800482, 13.490866927095482 ], [ -85.339243611305349, 13.490868758078919 ], [ -85.339241680342909, 13.491148122993051 ], [ -85.343113956215888, 13.491173725328791 ], [ -85.343112029707086, 13.491453090785955 ], [ -85.343665213272899, 13.491456743467337 ], [ -85.343663287362972, 13.491736108996422 ], [ -85.344493063982512, 13.491741585851505 ], [ -85.344491138992723, 13.492020951491661 ], [ -85.34476773160236, 13.492022776539967 ], [ -85.344765806890237, 13.492302142212814 ], [ -85.343936028220355, 13.492296666036507 ], [ -85.343932176737709, 13.492855397127707 ], [ -85.343378989877351, 13.492851744663611 ], [ -85.343377063428036, 13.493131110121107 ], [ -85.343100469738005, 13.493129283392902 ], [ -85.343094689164431, 13.493967379608906 ], [ -85.343647878513266, 13.493971032995871 ], [ -85.343645952210764, 13.494250398466646 ], [ -85.34447573750505, 13.494255876379663 ], [ -85.344473812122914, 13.494535241961508 ], [ -85.34475040762419, 13.494537067362346 ], [ -85.344748482519776, 13.494816432976883 ], [ -85.345025078383301, 13.494818258112204 ], [ -85.345023153556639, 13.495097623759424 ], [ -85.3458529423567, 13.495103097454736 ], [ -85.345851018450489, 13.495382463212929 ], [ -85.346127615120324, 13.495384287207788 ], [ -85.346123767819932, 13.495943018783009 ], [ -85.346400365173352, 13.495944842551435 ], [ -85.346394594860243, 13.496782939983071 ], [ -85.346947791617978, 13.496786586840514 ], [ -85.346951637251422, 13.496227855069417 ], [ -85.349441018898546, 13.496244250140146 ], [ -85.349439098995987, 13.496523616380706 ], [ -85.349992296009361, 13.496527256455938 ], [ -85.349996134485508, 13.495968523812143 ], [ -85.350272732410644, 13.495970343314589 ], [ -85.350274651262168, 13.495690976943932 ], [ -85.351381042084981, 13.495698251750486 ], [ -85.351384877086886, 13.495139518677552 ], [ -85.35193807145744, 13.495143154096565 ], [ -85.351932320817625, 13.495981253930266 ], [ -85.352762115571238, 13.49598670512445 ], [ -85.352764031530484, 13.495707338402731 ], [ -85.353593825686517, 13.495712786737565 ], [ -85.353591910691378, 13.495992153576186 ], [ -85.354698304754677, 13.49599941391247 ], [ -85.354696391001681, 13.496278780900399 ], [ -85.356355985245017, 13.496289662496769 ], [ -85.356354073376977, 13.496569029711692 ], [ -85.356630672881181, 13.49657084228344 ], [ -85.356632584427828, 13.496291475029626 ], [ -85.357738981565305, 13.496298722113801 ], [ -85.357737071304186, 13.496578089523108 ], [ -85.358290270759326, 13.496581711314544 ], [ -85.358288361097749, 13.496861078795085 ], [ -85.359947962365368, 13.496871937088759 ], [ -85.359949870098575, 13.496592569375252 ], [ -85.360503070202782, 13.496596186290949 ], [ -85.360501163112346, 13.496875554082056 ], [ -85.361054364021456, 13.496879169856388 ], [ -85.361052457530661, 13.497158537718596 ], [ -85.362435462119407, 13.497167572015266 ], [ -85.362433557192503, 13.49744694006483 ], [ -85.362986759954268, 13.49745055172774 ], [ -85.362982951256754, 13.498009287962409 ], [ -85.364089359837251, 13.498016507940935 ], [ -85.364087456709555, 13.498295876203448 ], [ -85.36436405927725, 13.498297680474865 ], [ -85.364362156427916, 13.498577048769613 ], [ -85.365468568388749, 13.498584262962259 ], [ -85.365466666782126, 13.498863631405293 ], [ -85.366019873647929, 13.498867236750256 ], [ -85.366017972641188, 13.499146605264158 ], [ -85.366294576456141, 13.499148407518113 ], [ -85.366290774956482, 13.499707144603823 ], [ -85.366567379454764, 13.499708946630289 ], [ -85.366565478961874, 13.499988315202085 ], [ -85.367395293663449, 13.499993719568545 ], [ -85.367393394092005, 13.500273088249795 ], [ -85.367116788829605, 13.500271287060492 ], [ -85.367112988914712, 13.500830024326291 ], [ -85.367389594820096, 13.500831825592865 ], [ -85.367383895589754, 13.50166993155892 ], [ -85.367937109450708, 13.501673533409313 ], [ -85.367939008594121, 13.501394164683184 ], [ -85.368768828723589, 13.501399565056509 ], [ -85.368770726859452, 13.501120196208078 ], [ -85.369047333328439, 13.501121995684221 ], [ -85.369045435514082, 13.501401364571244 ], [ -85.369322042344905, 13.501403163781131 ], [ -85.369320144809137, 13.501682532700277 ], [ -85.369596752001812, 13.501684331643894 ], [ -85.369592957444482, 13.502243069539924 ], [ -85.369869565320528, 13.502244868255834 ], [ -85.369867668299008, 13.50252423723272 ], [ -85.370697493133591, 13.50252963166691 ], [ -85.370695597033816, 13.502809000753013 ], [ -85.371525423195621, 13.502814392558923 ], [ -85.371523528017605, 13.503093761754185 ], [ -85.371800137140312, 13.50309555845158 ], [ -85.37179824224097, 13.5033749276789 ], [ -85.372074851725515, 13.503376724109925 ], [ -85.372071062441336, 13.503935462622191 ], [ -85.373177503354583, 13.503942645605363 ] ] ] } }
]
}
