{
"type": "FeatureCollection",
"name": "longest_flowpath_cuenca_2_p2",
"crs": { "type": "name", "properties": { "name": "urn:ogc:def:crs:OGC:1.3:CRS84" } },
"features": [
{ "type": "Feature", "properties": { "fid": 2, "BASIN": 2.0, "UP_ELEV": 599.25, "DN_ELEV": 205.33999636121064, "LENGTH": 27618.859060725445, "AVG_SLOPE": 1.4262356123136783, "Long_km": 27.619 }, "geometry": { "type": "MultiLineString", "coordinates": [ [ [ -85.377644293419067, 13.395151777424378 ], [ -85.377646165821474, 13.394872404986504 ], [ -85.377922651664846, 13.394874180863102 ], [ -85.378199137548265, 13.394875956437339 ], [ -85.378475623471715, 13.39487773170921 ], [ -85.378752109435183, 13.394879506678713 ], [ -85.379028595438669, 13.39488128134585 ], [ -85.379305081482173, 13.394883055710624 ], [ -85.37958156756568, 13.394884829773027 ], [ -85.379858053689162, 13.394886603533067 ], [ -85.379859923498913, 13.394607230781979 ], [ -85.379585307780047, 13.394326084341087 ], [ -85.379587177823311, 13.394046711615474 ], [ -85.379312563015446, 13.393765564974366 ], [ -85.379037948842424, 13.393484418101163 ], [ -85.379039819395302, 13.393205045432955 ], [ -85.378763335304228, 13.393203270995889 ], [ -85.378765206133195, 13.3929238983596 ], [ -85.378767076919544, 13.392644525716893 ], [ -85.378768947663275, 13.392365153067759 ], [ -85.378770818364359, 13.392085780412204 ], [ -85.378772689022838, 13.391806407750224 ], [ -85.378498077499742, 13.391525260572536 ], [ -85.378223466611388, 13.391244113162843 ], [ -85.378225337779284, 13.390964740558305 ], [ -85.378227208904548, 13.390685367947343 ], [ -85.377950727801633, 13.390683592948573 ], [ -85.377674246738778, 13.390681817647533 ], [ -85.377399637754493, 13.390400669541958 ], [ -85.377125029404894, 13.390119521204452 ], [ -85.376850421689923, 13.389838372635049 ], [ -85.376575814609595, 13.389557223833757 ], [ -85.376577687433326, 13.389277851420964 ], [ -85.376301208163866, 13.389276074800605 ], [ -85.376303081263529, 13.38899670241979 ], [ -85.376304954320503, 13.388717330032554 ], [ -85.376583305648467, 13.388439734144045 ], [ -85.376861656336615, 13.388162137870104 ], [ -85.377138134411837, 13.38816391373244 ], [ -85.37741461252709, 13.388165689292567 ], [ -85.37769109068239, 13.388167464550486 ], [ -85.37796756887775, 13.388169239506192 ], [ -85.378244047113128, 13.388171014159699 ], [ -85.378522395768826, 13.387893415797453 ], [ -85.378524266106481, 13.387614043077498 ], [ -85.378526136401518, 13.387334670351121 ], [ -85.378251529652786, 13.38705352342045 ], [ -85.37797692353854, 13.386772376257897 ], [ -85.377978794342752, 13.386493003588972 ], [ -85.378257141109827, 13.386215405298598 ], [ -85.378259011510238, 13.385936032578474 ], [ -85.37853548723723, 13.385937806622918 ], [ -85.378811963004239, 13.385939580365207 ], [ -85.379090308213463, 13.385661980963745 ], [ -85.379366783741958, 13.385663754063387 ], [ -85.379645128033033, 13.385386153936196 ], [ -85.379923471684478, 13.385108553423789 ], [ -85.380201814696306, 13.384830952526189 ], [ -85.380478289429234, 13.384832724302296 ], [ -85.380754764202123, 13.384834495776268 ], [ -85.381031239014987, 13.384836266948112 ], [ -85.381307713867798, 13.384838037817824 ], [ -85.381586055125894, 13.384560435173347 ], [ -85.381862529740104, 13.384562205400517 ], [ -85.38214087008005, 13.384284602030529 ], [ -85.382417344455632, 13.384286371615186 ], [ -85.382693818871147, 13.384288140897716 ], [ -85.382972158014411, 13.384010536461917 ], [ -85.383250496518102, 13.38373293164109 ], [ -85.383528834382275, 13.383455326435252 ], [ -85.383807171606918, 13.383177720844429 ], [ -85.38408550819203, 13.382900114868642 ], [ -85.384087371393548, 13.382620741267406 ], [ -85.384365706978258, 13.382343134862035 ], [ -85.384644041923494, 13.382065528071744 ], [ -85.38464590436071, 13.381786154374826 ], [ -85.384647766755464, 13.381506780671495 ], [ -85.384926100339499, 13.381229173407064 ], [ -85.385204433284116, 13.380951565757762 ], [ -85.385206294914681, 13.38067219195878 ], [ -85.385208156502813, 13.380392818153384 ], [ -85.385210018048468, 13.380113444341569 ], [ -85.384935409872043, 13.379832304571064 ], [ -85.384660802329748, 13.379551164568525 ], [ -85.38438619542157, 13.379270024333971 ], [ -85.384111589147508, 13.378988883867427 ], [ -85.383836983507521, 13.378707743168908 ], [ -85.383560515300616, 13.378705975859461 ], [ -85.383284047133614, 13.378704208248028 ], [ -85.383285910652944, 13.378424834665232 ], [ -85.383011306639318, 13.378143693239087 ], [ -85.382734839188771, 13.378141925100167 ], [ -85.383013170391962, 13.377864319681708 ], [ -85.382738567288186, 13.377583178055492 ], [ -85.382463964818427, 13.377302036197399 ], [ -85.382189362982658, 13.377020894107453 ], [ -85.382191227520153, 13.376741520639181 ], [ -85.382193092015129, 13.376462147164489 ], [ -85.382194956467572, 13.376182773683384 ], [ -85.382196820877482, 13.375903400195867 ], [ -85.382198685244873, 13.37562402670193 ], [ -85.382200549569745, 13.375344653201585 ], [ -85.381925950022392, 13.375063511070918 ], [ -85.381927814580436, 13.374784137596011 ], [ -85.381929679095975, 13.374504764114684 ], [ -85.381931543568953, 13.374225390626949 ], [ -85.381656945482561, 13.373944248360083 ], [ -85.381658810188696, 13.373664874897791 ], [ -85.381382348029987, 13.373663105861482 ], [ -85.381105885911211, 13.373661336523302 ], [ -85.380831289450597, 13.373380193529409 ], [ -85.38055669362376, 13.373099050303825 ], [ -85.380280232261256, 13.373097280136644 ], [ -85.380282098430712, 13.372817906846576 ], [ -85.380283964557606, 13.372538533550093 ], [ -85.380009370273896, 13.372257389893097 ], [ -85.379734776623934, 13.371976246004483 ], [ -85.379458316654038, 13.371974475085034 ], [ -85.379181856724145, 13.371972703863751 ], [ -85.378905396834242, 13.371970932340639 ], [ -85.378630804892424, 13.371689787429949 ], [ -85.378632672757917, 13.371410414337783 ], [ -85.378358081725324, 13.371129269227483 ], [ -85.378081622909875, 13.37112749691396 ], [ -85.377807032869129, 13.370846351308701 ], [ -85.377808901561139, 13.370566978312365 ], [ -85.377534312429503, 13.370285832507589 ], [ -85.377536181354358, 13.370006459536791 ], [ -85.377538050236566, 13.369727086559587 ], [ -85.377263462289477, 13.369445940587276 ], [ -85.376988874975936, 13.36916479438354 ], [ -85.376990744366381, 13.368885421463858 ], [ -85.376714288295972, 13.368883647948403 ], [ -85.376439702249556, 13.368602501281877 ], [ -85.37616511683666, 13.368321354383994 ], [ -85.375890532057269, 13.36804020725476 ], [ -85.375892402549312, 13.367760834463018 ], [ -85.375617818678791, 13.367479687134464 ], [ -85.375619689403464, 13.367200314368313 ], [ -85.375621560085477, 13.366920941595753 ], [ -85.37534697739909, 13.366639794099916 ], [ -85.375070524113468, 13.366638019081355 ], [ -85.374794070867949, 13.366636243761086 ], [ -85.374517617662548, 13.366634468139113 ], [ -85.374241164497221, 13.36663269221544 ], [ -85.373964711372011, 13.366630915990065 ], [ -85.37369013110964, 13.366349766946685 ], [ -85.373413678382704, 13.366347990156374 ], [ -85.373137225695885, 13.366346213064363 ], [ -85.37285889927243, 13.366623808071537 ], [ -85.372580572210339, 13.366901402693625 ], [ -85.372578698030011, 13.367180775043188 ], [ -85.372300369968428, 13.367458369235271 ], [ -85.372023916170122, 13.367456590782483 ], [ -85.372025791029273, 13.367177218516325 ], [ -85.371749337589165, 13.367175439800322 ], [ -85.371472884189217, 13.367173660782605 ], [ -85.371194555016174, 13.36745125361379 ], [ -85.370918101378564, 13.367449473954121 ], [ -85.370641647781142, 13.36744769399273 ], [ -85.370365194223922, 13.36744591372962 ], [ -85.370088740706905, 13.367444133164792 ], [ -85.369812287230104, 13.367442352298241 ], [ -85.369535833793535, 13.367440571129974 ], [ -85.369259380397182, 13.367438789659989 ], [ -85.368981048640649, 13.367716379724092 ], [ -85.368704595006747, 13.367714597612089 ], [ -85.368426262333699, 13.367992186950595 ], [ -85.368149808462249, 13.367990404196549 ], [ -85.367871474872672, 13.3682679928094 ], [ -85.367595020763702, 13.368266209413289 ], [ -85.367596900840127, 13.36798683778327 ], [ -85.36732232744103, 13.367705682526211 ], [ -85.367043993379099, 13.367983270163069 ], [ -85.366767539709031, 13.367981485900374 ], [ -85.366489204730613, 13.368259072811483 ], [ -85.366210869113459, 13.368536659337167 ], [ -85.366208987360906, 13.368816030761232 ], [ -85.366207105565394, 13.36909540217888 ], [ -85.366205223726936, 13.369374773590108 ], [ -85.366203341845548, 13.369654144994922 ], [ -85.366201459921214, 13.369933516393319 ], [ -85.366199577953935, 13.370212887785302 ], [ -85.366197695943725, 13.370492259170863 ], [ -85.36591935716055, 13.370769844995682 ], [ -85.365642900470846, 13.370768059139554 ], [ -85.365364560770999, 13.371045644238412 ], [ -85.365088103843831, 13.371043857740036 ], [ -85.364811646957008, 13.371042070939858 ], [ -85.364533306062697, 13.371319654972224 ], [ -85.364254964529479, 13.371597238619 ], [ -85.364253080077518, 13.371876609701825 ], [ -85.363976622357342, 13.371874821880175 ], [ -85.363702049765791, 13.371593662751271 ], [ -85.363703934811014, 13.37131429173942 ], [ -85.363427477807861, 13.371312503391538 ], [ -85.363149135163582, 13.37159008567629 ], [ -85.362874563922702, 13.371308925790361 ], [ -85.362598107040711, 13.371307136537062 ], [ -85.362319763563193, 13.37158471780023 ], [ -85.362317876884234, 13.371864088612076 ], [ -85.362315990162216, 13.372143459417503 ], [ -85.362037645323397, 13.37242104020466 ], [ -85.361761187290043, 13.372419249890976 ], [ -85.361484729297104, 13.372417459275461 ], [ -85.361206383263848, 13.372695038995719 ], [ -85.361204495140001, 13.372974409626902 ], [ -85.360928036591602, 13.372972618330197 ], [ -85.360651578083633, 13.372970826731652 ], [ -85.360375119616123, 13.372969034831266 ], [ -85.36009677174944, 13.373246613098706 ], [ -85.359820313044679, 13.373244820555843 ], [ -85.359543854380377, 13.373243027711132 ], [ -85.35926928615072, 13.372961864211288 ], [ -85.35927117650175, 13.372682493851581 ], [ -85.359273066809678, 13.372403123485459 ], [ -85.359274957074447, 13.372123753112909 ], [ -85.359276847296115, 13.371844382733947 ], [ -85.359278737474639, 13.371565012348562 ], [ -85.359280627610048, 13.371285641956755 ], [ -85.359558973780935, 13.371008064394674 ], [ -85.359837319312931, 13.37073048644678 ], [ -85.360115664206049, 13.370452908113094 ], [ -85.36011755321465, 13.370173537579225 ], [ -85.360119442180135, 13.369894167038936 ], [ -85.360121331102533, 13.369614796492233 ], [ -85.359846765730893, 13.369333633939286 ], [ -85.359572200992758, 13.369052471155747 ], [ -85.359295747140834, 13.369050678591215 ], [ -85.359021183394773, 13.368769515314163 ], [ -85.358746620282176, 13.368488351806569 ], [ -85.35847205780307, 13.368207188068455 ], [ -85.358195605067294, 13.368205394413401 ], [ -85.357919152372034, 13.368203600456619 ], [ -85.357642699717289, 13.368201806198108 ], [ -85.357366247103073, 13.368200011637867 ], [ -85.35709168669166, 13.367918846617703 ], [ -85.356817126913697, 13.367637681367111 ], [ -85.356542567769154, 13.367356515886112 ], [ -85.356264223241169, 13.367634090290002 ], [ -85.355989664813791, 13.367352924283322 ], [ -85.355713213396939, 13.367351128029368 ], [ -85.355434868036539, 13.367628701411473 ], [ -85.355160310684965, 13.367347534616325 ], [ -85.354885753966784, 13.367066367590851 ], [ -85.354611197881979, 13.366785200335075 ], [ -85.354336642430567, 13.366504032849019 ], [ -85.35406208761249, 13.366222865132693 ], [ -85.353787533427749, 13.365941697186122 ], [ -85.353512979876356, 13.365660529009325 ], [ -85.353238426958256, 13.365379360602327 ], [ -85.352961978173397, 13.365377561603946 ], [ -85.352685529429166, 13.365375762303904 ], [ -85.352410977861581, 13.365094593141318 ], [ -85.352412874954283, 13.364815223574011 ], [ -85.352136426927274, 13.36481342374859 ], [ -85.351859978940922, 13.36481162362152 ], [ -85.351583530995228, 13.364809823192802 ], [ -85.351307083090205, 13.364808022462439 ], [ -85.351030635225868, 13.364806221430428 ], [ -85.350752288401722, 13.365083789430161 ], [ -85.350475840300788, 13.365081987755845 ], [ -85.35019939224054, 13.365080185779885 ], [ -85.349924844175348, 13.364799014285923 ], [ -85.349646496242173, 13.365076580922999 ], [ -85.349370048304067, 13.365074778042079 ], [ -85.349095501314906, 13.364793605760269 ], [ -85.348819053776197, 13.364791802315095 ], [ -85.348540704734091, 13.365069367589408 ], [ -85.348262355053393, 13.365346932477536 ], [ -85.347984004734101, 13.365624496979452 ], [ -85.347707556404487, 13.365622692210479 ], [ -85.347429205169391, 13.36590025598543 ], [ -85.347150853295645, 13.366177819374114 ], [ -85.346874404452379, 13.366176013621965 ], [ -85.346596051662786, 13.366453576283599 ], [ -85.346317698234543, 13.366731138558919 ], [ -85.346315793842507, 13.36701050722243 ], [ -85.346313889407028, 13.367289875879521 ], [ -85.34631198492805, 13.367569244530193 ], [ -85.346310080405644, 13.36784861317444 ], [ -85.346031724892782, 13.368126174881285 ], [ -85.345753368741171, 13.368403736201751 ], [ -85.345751463452245, 13.368683104748495 ], [ -85.345749558119863, 13.368962473288812 ], [ -85.345747652743995, 13.369241841822713 ], [ -85.345745747324656, 13.369521210350189 ], [ -85.345743841861832, 13.369800578871242 ], [ -85.345467389088085, 13.369798771102055 ], [ -85.345189030212708, 13.370076331467473 ], [ -85.345187124026751, 13.370355699897416 ], [ -85.34518521779728, 13.370635068320935 ], [ -85.345183311524309, 13.370914436738031 ], [ -85.344904950925283, 13.371191996580288 ], [ -85.344903044247204, 13.371471364945396 ], [ -85.344901137525625, 13.371750733304079 ], [ -85.344622775564417, 13.372028292668682 ], [ -85.344344412964261, 13.37230585164675 ], [ -85.344066049725143, 13.372583410238262 ], [ -85.343787685847062, 13.37286096844319 ], [ -85.343509321329961, 13.373138526261524 ], [ -85.343507412756523, 13.373417894385847 ], [ -85.343505504139515, 13.373697262503743 ], [ -85.343227138259977, 13.373974819844246 ], [ -85.343225229237717, 13.374254187910113 ], [ -85.343499778027279, 13.37453536681889 ], [ -85.343497869236117, 13.374814734911084 ], [ -85.343772418934108, 13.375095913622671 ], [ -85.343770510374085, 13.375375281741189 ], [ -85.34376860177052, 13.375654649853278 ], [ -85.343492142601391, 13.37565283914911 ], [ -85.34321377418955, 13.375930396170356 ], [ -85.342939224385731, 13.375649216835086 ], [ -85.342662765339242, 13.375647405225232 ], [ -85.342386306333637, 13.375645593313482 ], [ -85.342109847368945, 13.375643781099837 ], [ -85.342107936812425, 13.375923148970353 ], [ -85.342106026212335, 13.376202516834438 ], [ -85.341827655690139, 13.376480072058916 ], [ -85.341549284528782, 13.376757626896614 ], [ -85.341272824413849, 13.376755813620374 ], [ -85.340996364339844, 13.376754000042213 ], [ -85.340719904306766, 13.376752186162136 ], [ -85.340443444314658, 13.37675037198014 ], [ -85.34044153167423, 13.377029739589556 ], [ -85.340163158402476, 13.377307292630116 ], [ -85.33988861117632, 13.377026110241284 ], [ -85.339610237349945, 13.377303662599468 ], [ -85.339608323667434, 13.377583030078245 ], [ -85.339329948839918, 13.377860582003821 ], [ -85.339051573373141, 13.378138133542469 ], [ -85.338773197267116, 13.378415684694172 ], [ -85.338494820521802, 13.378693235458906 ], [ -85.338216443137185, 13.378970785836648 ], [ -85.337938065113249, 13.379248335827386 ], [ -85.33765968645001, 13.3795258854311 ], [ -85.337381307147439, 13.37980343464776 ], [ -85.337102927205493, 13.380080983477356 ], [ -85.3368245466242, 13.380358531919867 ], [ -85.336546165403504, 13.380636079975268 ], [ -85.336544247695244, 13.38091544694451 ], [ -85.336542329943256, 13.381194813907316 ], [ -85.336540412147542, 13.381474180863691 ], [ -85.336538494308087, 13.381753547813634 ], [ -85.336536576424919, 13.382032914757149 ], [ -85.33653465849801, 13.382312281694229 ], [ -85.336532740527375, 13.382591648624881 ], [ -85.336530822513026, 13.382871015549096 ], [ -85.336528904454923, 13.383150382466882 ], [ -85.336526986353093, 13.383429749378234 ], [ -85.336248600871713, 13.383707296588721 ], [ -85.335972133576917, 13.383705476592207 ], [ -85.335693747178595, 13.383983023074036 ], [ -85.335417279647501, 13.383981202433995 ], [ -85.335140812157491, 13.383979381491869 ], [ -85.334866264808511, 13.383698193585355 ], [ -85.334589797719119, 13.383696372078447 ], [ -85.334313330670824, 13.383694550269459 ], [ -85.334034942608383, 13.383972094702511 ], [ -85.333756553906383, 13.384249638748249 ], [ -85.333478164564781, 13.384527182406632 ], [ -85.333476242741213, 13.384806548852634 ], [ -85.333197852397745, 13.385084092077802 ], [ -85.332919461414647, 13.385361634915583 ], [ -85.332641069791904, 13.385639177365951 ], [ -85.332362677529488, 13.38591671942889 ], [ -85.332084284627413, 13.386194261104373 ], [ -85.331805891085651, 13.386471802392396 ], [ -85.331527496904187, 13.386749343292921 ], [ -85.331249102083007, 13.387026883805943 ], [ -85.331247177316925, 13.387306249878486 ], [ -85.33124525250696, 13.387585615944593 ], [ -85.331243327653127, 13.387864982004263 ], [ -85.331241402755424, 13.388144348057498 ], [ -85.331239477813853, 13.388423714104299 ], [ -85.33096300584485, 13.388421887999352 ], [ -85.33068460829449, 13.388699427553629 ], [ -85.330682682628023, 13.388978793508603 ], [ -85.330680756917673, 13.389258159457137 ], [ -85.330678831163439, 13.389537525399238 ], [ -85.330402358002544, 13.389535698531972 ], [ -85.330123958447558, 13.389813237219176 ], [ -85.330122031968358, 13.390092603069419 ], [ -85.329843631410995, 13.390370141323038 ], [ -85.329841704525379, 13.39064950712091 ], [ -85.329565230213717, 13.390647679188982 ], [ -85.329563302965568, 13.390927044940906 ], [ -85.329561375673492, 13.391206410686392 ], [ -85.329559448337506, 13.391485776425442 ], [ -85.329557520957593, 13.391765142158055 ], [ -85.329279117670183, 13.392042679452494 ], [ -85.329000713742786, 13.392320216359193 ], [ -85.328722309175376, 13.392597752878125 ], [ -85.328443903967951, 13.392875289009275 ], [ -85.328165498120484, 13.393152824752624 ], [ -85.327887091632959, 13.393430360108152 ], [ -85.327608684505378, 13.39370789507584 ], [ -85.327330276737726, 13.393985429655665 ], [ -85.327051868329974, 13.394262963847604 ], [ -85.326773459282109, 13.394540497651647 ], [ -85.326496980963057, 13.394538665841004 ], [ -85.326218570997654, 13.394816198915212 ], [ -85.326216639266008, 13.395095564095952 ], [ -85.325940160392122, 13.395093731601468 ], [ -85.32593822829773, 13.395373096736174 ], [ -85.325661749146434, 13.395371263899753 ], [ -85.325385270036492, 13.395369430760983 ], [ -85.32510879096786, 13.395367597319868 ], [ -85.324832311940582, 13.395365763576409 ], [ -85.324555832954644, 13.395363929530605 ], [ -85.324279354010073, 13.395362095182453 ], [ -85.324000940737278, 13.395639625382886 ], [ -85.323722526824284, 13.395917155195241 ], [ -85.323444112271119, 13.396194684619498 ], [ -85.323167632535785, 13.396192848942993 ], [ -85.323165697077727, 13.396472213655638 ], [ -85.323163761575572, 13.39675157836184 ], [ -85.323161826029335, 13.397030943061601 ], [ -85.323159890439015, 13.397310307754916 ], [ -85.322881473516787, 13.397587836264597 ], [ -85.322603055954289, 13.397865364386098 ], [ -85.322324637751478, 13.398142892119401 ], [ -85.322046218908383, 13.39842041946449 ], [ -85.321767799424933, 13.398697946421342 ], [ -85.321489379301156, 13.398975472989937 ], [ -85.321487441489211, 13.399254837400056 ], [ -85.321485503633113, 13.399534201803734 ], [ -85.32148356573289, 13.399813566200963 ], [ -85.321481627788515, 13.400092930591748 ], [ -85.321479689800029, 13.400372294976092 ], [ -85.321477751767389, 13.400651659353986 ], [ -85.321475813690626, 13.400931023725441 ], [ -85.321473875569708, 13.401210388090448 ], [ -85.321471937404652, 13.401489752449013 ], [ -85.321193513373487, 13.401767278213978 ], [ -85.321191574801261, 13.402046642519943 ], [ -85.321189636184897, 13.402326006819459 ], [ -85.32118769752438, 13.402605371112537 ], [ -85.321185758819695, 13.402884735399164 ], [ -85.320907332695782, 13.40316226059114 ], [ -85.320628905931301, 13.40343978539471 ], [ -85.320350478526208, 13.403717309809849 ], [ -85.320348538688108, 13.403996673951536 ], [ -85.320346598805827, 13.40427603808677 ], [ -85.320068170033878, 13.40455356202111 ], [ -85.320066229744285, 13.404832926103722 ], [ -85.32006428941051, 13.405112290179888 ], [ -85.31978585927159, 13.405389813633375 ], [ -85.319783918530476, 13.405669177656904 ], [ -85.319505487387673, 13.405946700675687 ], [ -85.319227055604173, 13.406224223305935 ], [ -85.318948623179921, 13.406501745547622 ], [ -85.318670190114929, 13.406779267400733 ], [ -85.318668247876758, 13.407058631232998 ], [ -85.318666305594363, 13.407337995058809 ], [ -85.318664363267757, 13.407617358878175 ], [ -85.318662420896942, 13.407896722691092 ], [ -85.318660478481902, 13.408176086497559 ], [ -85.318658536022639, 13.408455450297579 ], [ -85.318656593519179, 13.408734814091146 ], [ -85.318654650971482, 13.409014177878264 ], [ -85.318652708379574, 13.409293541658935 ], [ -85.318650765743456, 13.409572905433158 ], [ -85.318648823063114, 13.409852269200927 ], [ -85.318646880338562, 13.41013163296225 ], [ -85.318644937569786, 13.41041099671712 ], [ -85.318642994756786, 13.410690360465543 ], [ -85.318641051899561, 13.410969724207513 ], [ -85.318639108998127, 13.411249087943036 ], [ -85.318637166052469, 13.411528451672101 ], [ -85.3186352230626, 13.411807815394722 ], [ -85.318633280028507, 13.412087179110896 ], [ -85.318631336950176, 13.412366542820608 ], [ -85.318629393827649, 13.412645906523878 ], [ -85.318627450660898, 13.412925270220692 ], [ -85.318349008961846, 13.413202790668278 ], [ -85.318070566621699, 13.413480310727094 ], [ -85.31779212364043, 13.413757830397127 ], [ -85.317513680018052, 13.414035349678347 ], [ -85.317235235754524, 13.414312868570748 ], [ -85.316956790849844, 13.4145903870743 ], [ -85.316680291014933, 13.414588541815899 ], [ -85.316403791221575, 13.414586696254704 ], [ -85.316127291469783, 13.414584850390723 ], [ -85.315850791759573, 13.41458300422395 ], [ -85.315574292090943, 13.414581157754391 ], [ -85.315299739726683, 13.414299947801675 ], [ -85.31502518799816, 13.41401873761942 ], [ -85.31475063690533, 13.413737527207655 ], [ -85.314474138360751, 13.413735679646541 ], [ -85.314197639857767, 13.413733831782656 ], [ -85.313921141396406, 13.413731983616007 ], [ -85.313646592021755, 13.413450772186078 ], [ -85.31337009396286, 13.413448923453778 ], [ -85.313093595945617, 13.413447074418723 ], [ -85.312817097970026, 13.413445225080904 ], [ -85.312540600036087, 13.413443375440325 ], [ -85.312262151502736, 13.413720888257966 ], [ -85.312260200817292, 13.414000251012489 ], [ -85.31198175127922, 13.414277763394683 ], [ -85.311705252512667, 13.414275912726024 ], [ -85.311428753787794, 13.414274061754591 ], [ -85.311152255104616, 13.414272210480375 ], [ -85.310875756463119, 13.41427035890338 ], [ -85.310599257863345, 13.414268507023607 ], [ -85.310322759305279, 13.414266654841052 ], [ -85.310046260788937, 13.414264802355721 ], [ -85.309769762314303, 13.414262949567613 ], [ -85.309491309914975, 13.414540458818788 ], [ -85.309212856874481, 13.414817967680746 ], [ -85.309210902499899, 13.415097329969909 ], [ -85.309208948080851, 13.415376692252613 ], [ -85.308930493671753, 13.41565420063243 ], [ -85.308652038621418, 13.415931708622985 ], [ -85.308373582929846, 13.416209216224242 ], [ -85.308095126597024, 13.416486723436197 ], [ -85.307816669622923, 13.416764230258822 ], [ -85.307814713340633, 13.417043592302738 ], [ -85.307812757013849, 13.417322954340195 ], [ -85.307810800642528, 13.417602316371198 ], [ -85.307808844226713, 13.417881678395741 ], [ -85.30780688776639, 13.41816104041383 ], [ -85.307804931261558, 13.418440402425457 ], [ -85.307802974712217, 13.418719764430636 ], [ -85.307524514550096, 13.418997270538494 ], [ -85.307522557592392, 13.419276632490719 ], [ -85.307520600590166, 13.419555994436486 ], [ -85.307518643543432, 13.419835356375801 ], [ -85.307516686452175, 13.420114718308653 ], [ -85.307514729316409, 13.420394080235049 ], [ -85.307512772136121, 13.420673442154989 ], [ -85.307787320715107, 13.42095466023955 ], [ -85.307785363765191, 13.421234022186603 ], [ -85.307783406770724, 13.421513384127197 ], [ -85.307781449731777, 13.421792746061334 ], [ -85.307779492648308, 13.42207210798901 ], [ -85.307777535520316, 13.422351469910232 ], [ -85.307499070627571, 13.422628975413708 ], [ -85.307497113091117, 13.42290833728198 ], [ -85.307495155510153, 13.423187699143789 ], [ -85.307493197884682, 13.423467060999137 ], [ -85.307491240214674, 13.423746422848026 ], [ -85.307212773224435, 13.424023927776009 ], [ -85.307210815145922, 13.424303289571936 ], [ -85.306934305592534, 13.424301432314435 ], [ -85.306655837318942, 13.424578936463291 ], [ -85.306379327529712, 13.424577078559707 ], [ -85.306653878512407, 13.424858298166203 ], [ -85.306375409233098, 13.42513580187895 ], [ -85.306373450017958, 13.42541516352888 ], [ -85.306371490758281, 13.42569452517235 ], [ -85.306369531454038, 13.425973886809354 ], [ -85.306367572105259, 13.426253248439902 ], [ -85.306365612711915, 13.426532610063983 ], [ -85.306087140970533, 13.426810113154479 ], [ -85.306085181168527, 13.427089474725573 ], [ -85.306359734264589, 13.427370694897474 ], [ -85.306634287997014, 13.427651914839961 ], [ -85.306632328700488, 13.427931276471799 ], [ -85.306630369359382, 13.428210638097173 ], [ -85.306628409973769, 13.428489999716094 ], [ -85.306349935961293, 13.428767502824059 ], [ -85.306071461306928, 13.42904500554231 ], [ -85.306069501148457, 13.429324367061714 ], [ -85.305791025487977, 13.429601869343706 ], [ -85.305514510072399, 13.429600009809629 ], [ -85.305512549185579, 13.42987937123595 ], [ -85.30578710430899, 13.430160592270042 ], [ -85.306063620405652, 13.430162451581134 ], [ -85.306340136544151, 13.430164310589079 ], [ -85.306616652724472, 13.430166169293875 ], [ -85.306891209568789, 13.43044738930926 ], [ -85.306889250146412, 13.430726750916525 ], [ -85.30716380790237, 13.431007970735978 ], [ -85.30716184871055, 13.431287332370372 ], [ -85.307159889474221, 13.431566693998302 ], [ -85.307157930193341, 13.43184605561977 ], [ -85.306879452366417, 13.432123558855935 ], [ -85.306600973897389, 13.432401061702333 ], [ -85.306322494786272, 13.432678564158948 ], [ -85.306320534368169, 13.432957925634391 ], [ -85.3063185739055, 13.433237287103376 ], [ -85.30631661339828, 13.433516648565892 ], [ -85.306314652846496, 13.433796010021942 ], [ -85.306312692250145, 13.434075371471531 ], [ -85.306310731609258, 13.434354732914656 ], [ -85.306308770923792, 13.43463409435131 ], [ -85.306306810193774, 13.434913455781507 ], [ -85.306028327526249, 13.435190957476047 ], [ -85.305749844216464, 13.435468458780717 ], [ -85.305747882713234, 13.43574782011137 ], [ -85.305469398396866, 13.436025320979592 ], [ -85.305467436484676, 13.436304682257228 ], [ -85.305465474527935, 13.436584043528402 ], [ -85.305186988840518, 13.43686154391359 ], [ -85.304908502510756, 13.437139043908825 ], [ -85.304630015538663, 13.437416543514081 ], [ -85.304351527924197, 13.437694042729339 ], [ -85.304073039667372, 13.437971541554585 ], [ -85.303794550768131, 13.438249039989795 ], [ -85.303516061226503, 13.438526538034951 ], [ -85.303237571042459, 13.438804035690032 ], [ -85.30295908021597, 13.439081532955013 ], [ -85.302957114934642, 13.439360893800469 ], [ -85.302678623101187, 13.439638390628721 ], [ -85.302676657410672, 13.439917751421088 ], [ -85.302674691675492, 13.44019711220699 ], [ -85.302396198470475, 13.440474608551851 ], [ -85.302117704622944, 13.440752104506537 ], [ -85.302392266137034, 13.441033330010997 ], [ -85.302666828288196, 13.441314555285906 ], [ -85.302664862329735, 13.441593916039466 ], [ -85.302662896326595, 13.44187327678655 ], [ -85.302660930278805, 13.442152637527167 ], [ -85.302382434521746, 13.442430133545653 ], [ -85.302105904899079, 13.442428268526552 ], [ -85.301829375318349, 13.442426403204021 ], [ -85.301552845779554, 13.442424537578056 ], [ -85.301276316282724, 13.442422671648661 ], [ -85.300999786827845, 13.442420805415832 ], [ -85.30072325741493, 13.442418938879575 ], [ -85.300444759347315, 13.442696432446123 ], [ -85.300166260637056, 13.442973925622358 ], [ -85.29988776128414, 13.443251418408247 ], [ -85.29960926128858, 13.443528910803776 ], [ -85.299330760650321, 13.443806402808928 ], [ -85.299052259369375, 13.444083894423679 ], [ -85.298775728330639, 13.444082025521956 ], [ -85.298499197333939, 13.44408015631676 ], [ -85.298220694854351, 13.444357646853653 ], [ -85.297942191732048, 13.444635137000082 ], [ -85.297663687967002, 13.444912626756022 ], [ -85.2973851835592, 13.445190116121463 ], [ -85.297106678508641, 13.445467605096376 ], [ -85.296828172815282, 13.445745093680747 ], [ -85.296549666479152, 13.446022581874558 ], [ -85.296271159500179, 13.446300069677777 ], [ -85.295992651878407, 13.4465775570904 ], [ -85.295714143613779, 13.4468550441124 ], [ -85.295435634706323, 13.447132530743756 ], [ -85.295157125155967, 13.447410016984447 ], [ -85.294878614962741, 13.447687502834462 ], [ -85.294600104126616, 13.447964988293769 ], [ -85.294323569280621, 13.447963113971703 ], [ -85.294047034476748, 13.447961239346073 ], [ -85.293770499715038, 13.447959364416892 ], [ -85.293491987402163, 13.448236848453725 ], [ -85.293213474446361, 13.448514332099775 ], [ -85.292936939170929, 13.448512456179163 ], [ -85.292660403937674, 13.448510579954982 ], [ -85.292381889783073, 13.448788062522313 ], [ -85.292103374985516, 13.449065544698803 ], [ -85.29182683923861, 13.449063667483099 ], [ -85.291550303533896, 13.449061789963817 ], [ -85.29127376787136, 13.44905991214095 ], [ -85.290997232251058, 13.449058034014506 ], [ -85.290720696672963, 13.449056155584481 ], [ -85.290446142386273, 13.448774918045206 ], [ -85.290171588737024, 13.448493680276771 ], [ -85.289897035725218, 13.448212442279191 ], [ -85.289622483350797, 13.447931204052487 ], [ -85.28934793161379, 13.447649965596682 ], [ -85.289073380514168, 13.447368726911785 ], [ -85.288798830051903, 13.447087487997827 ], [ -85.288524280226994, 13.446806248854822 ], [ -85.288249731039429, 13.446525009482791 ], [ -85.287975182489177, 13.446243769881756 ], [ -85.28770063457624, 13.445962530051736 ], [ -85.287424103025998, 13.445960648424386 ], [ -85.287149556112666, 13.445679408102404 ], [ -85.286873024967065, 13.445677525908566 ], [ -85.286596493863769, 13.44567564341123 ], [ -85.286319962802807, 13.445673760610395 ], [ -85.286317977248146, 13.445953118879928 ], [ -85.28631599164838, 13.44623247714298 ], [ -85.286314006003522, 13.446511835399555 ], [ -85.286035488014818, 13.446789310383148 ], [ -85.285756969383243, 13.447066784975641 ], [ -85.285478450108812, 13.447344259177022 ], [ -85.285199930191496, 13.447621732987271 ], [ -85.284923397101977, 13.447619848384953 ], [ -85.284644876264053, 13.447897321459923 ], [ -85.284368342939175, 13.447895436209937 ], [ -85.284091809656701, 13.447893550656403 ], [ -85.283817265167556, 13.447612306940259 ], [ -85.283538743218898, 13.447889778638686 ], [ -85.283260220627326, 13.44816724994587 ], [ -85.283534764941351, 13.448448494256162 ], [ -85.283532775734813, 13.448727852055185 ], [ -85.283530786483126, 13.449007209847727 ], [ -85.28352879718625, 13.449286567633791 ], [ -85.283526807844225, 13.449565925413374 ], [ -85.283524818457025, 13.44984528318648 ], [ -85.283522829024648, 13.450124640953105 ], [ -85.283520839547108, 13.450403998713254 ], [ -85.283518850024407, 13.450683356466921 ], [ -85.28351686045653, 13.450962714214114 ], [ -85.283238333846768, 13.451240185003313 ], [ -85.283236343868396, 13.451519542696934 ], [ -85.283234353844833, 13.451798900384071 ], [ -85.283232363776108, 13.452078258064731 ], [ -85.283230373662192, 13.452357615738904 ], [ -85.283228383503101, 13.452636973406607 ], [ -85.283226393298818, 13.452916331067817 ], [ -85.282947863853778, 13.453193801183106 ], [ -85.282945873238944, 13.453473158790741 ], [ -85.282943882578905, 13.4537525163919 ], [ -85.282941891873691, 13.454031873986576 ], [ -85.282663360689227, 13.454309343569145 ], [ -85.282661369573376, 13.454588701110234 ], [ -85.282659378412347, 13.454868058644843 ], [ -85.282657387206115, 13.455147416172967 ], [ -85.282655395954691, 13.45542677369461 ], [ -85.28237686266516, 13.455704242697296 ], [ -85.282098328732317, 13.455981711308493 ], [ -85.281819794156107, 13.456259179528191 ], [ -85.281541258936571, 13.456536647356367 ], [ -85.281262723073681, 13.456814114793001 ], [ -85.280984186567395, 13.457091581838069 ], [ -85.280705649417712, 13.457369048491563 ], [ -85.280429105800209, 13.457367157608907 ], [ -85.280152562225197, 13.457365266422487 ], [ -85.279876018692647, 13.457363374932294 ], [ -85.279601470293869, 13.457082126109382 ], [ -85.279326922532917, 13.456800877057626 ], [ -85.279052375409805, 13.456519627777045 ], [ -85.278777828924504, 13.456238378267662 ], [ -85.278779824795507, 13.455959021334904 ], [ -85.278503283077015, 13.455957128529496 ], [ -85.278228737867281, 13.455675878562564 ], [ -85.277954193295329, 13.455394628366884 ], [ -85.277677652344991, 13.455392734731758 ], [ -85.277401111437186, 13.45539084079291 ], [ -85.277124570571956, 13.45538894655034 ], [ -85.276848029749289, 13.455387052004053 ], [ -85.276573487266361, 13.455105800527804 ], [ -85.276296946849087, 13.455103905414852 ], [ -85.276020406474402, 13.455102009998187 ], [ -85.275743866142321, 13.455100114277807 ], [ -85.275467325852816, 13.455098218253719 ], [ -85.275190785605929, 13.455096321925913 ], [ -85.274912245182918, 13.455373781675885 ], [ -85.274635704700998, 13.455371884699845 ], [ -85.274359164261696, 13.455369987420084 ], [ -85.274080622640099, 13.455647446089152 ], [ -85.273802080375191, 13.455924904366338 ], [ -85.273523537466943, 13.456202362251641 ], [ -85.27324499391537, 13.456479819745033 ], [ -85.272966449720414, 13.456757276846496 ], [ -85.27268790488209, 13.457034733556005 ], [ -85.272409359400356, 13.457312189873546 ], [ -85.272407355935599, 13.457591545835582 ], [ -85.272128809444681, 13.457869001713775 ], [ -85.271850262310352, 13.458146457199947 ], [ -85.271571714532541, 13.458423912294085 ], [ -85.271293166111292, 13.458701366996165 ], [ -85.271014617046546, 13.458978821306173 ], [ -85.270736067338305, 13.45925627522408 ], [ -85.270457516986568, 13.459533728749879 ], [ -85.270182978728741, 13.459252470711121 ], [ -85.269904427821743, 13.459529923547459 ], [ -85.269902421109904, 13.459809279089495 ], [ -85.269623869193467, 13.460086731486248 ], [ -85.26934531663349, 13.46036418349081 ], [ -85.269343309144247, 13.460643538931505 ], [ -85.269341301609472, 13.46092289436571 ], [ -85.269339294029152, 13.46120224979343 ], [ -85.269060739727735, 13.46147970126348 ], [ -85.268782184782694, 13.461757152341283 ], [ -85.268503629194015, 13.462034603026815 ] ] ] } }
]
}
