{
"type": "FeatureCollection",
"name": "zona_de_riesgo_el_papayo",
"crs": { "type": "name", "properties": { "name": "urn:ogc:def:crs:OGC:1.3:CRS84" } },
"features": [
{ "type": "Feature", "properties": { "id": null, "Name": "Zona de Riesgo El Papayo", "description": "El Papayo", "timestamp": null, "begin": null, "end": null, "altitudeMode": null, "tessellate": 1, "extrude": 0, "visibility": -1, "drawOrder": null, "icon": null }, "geometry": { "type": "Polygon", "coordinates": [ [ [ -85.358496155930581, 13.34517725720637, 0.0 ], [ -85.356816256816757, 13.337841989803909, 0.0 ], [ -85.353785612115772, 13.33771090068922, 0.0 ], [ -85.355056292761887, 13.344521514132669, 0.0 ], [ -85.358496155930581, 13.34517725720637, 0.0 ] ] ] } }
]
}
